{"type":"FeatureCollection","features":[{"type":"Feature","properties":{"name":"Iquique"},"geometry":{"type":"Point","coordinates":[-70.00367250000001,-21.0562425]}},{"type":"Feature","properties":{"name":"Alto Hospicio"},"geometry":{"type":"Point","coordinates":[-70.0012325,-20.162574999999997]}},{"type":"Feature","properties":{"name":"Pozo Almonte"},"geometry":{"type":"Point","coordinates":[-69.452595,-21.072565]}},{"type":"Feature","properties":{"name":"Camiña"},"geometry":{"type":"Point","coordinates":[-69.49359500000001,-19.362692499999998]}},{"type":"Feature","properties":{"name":"Colchane"},"geometry":{"type":"Point","coordinates":[-68.74690000000001,-19.445137499999998]}},{"type":"Feature","properties":{"name":"Huara"},"geometry":{"type":"Point","coordinates":[-69.34918749999999,-19.75178]}},{"type":"Feature","properties":{"name":"Pica"},"geometry":{"type":"Point","coordinates":[-69.19175750000001,-20.484814999999998]}},{"type":"Feature","properties":{"name":"Antofagasta"},"geometry":{"type":"Point","coordinates":[-69.4105225,-24.171822499999998]}},{"type":"Feature","properties":{"name":"Mejillones"},"geometry":{"type":"Point","coordinates":[-70.1253275,-22.776587499999998]}},{"type":"Feature","properties":{"name":"Sierra Gorda"},"geometry":{"type":"Point","coordinates":[-69.29773750000001,-23.21603]}},{"type":"Feature","properties":{"name":"Taltal"},"geometry":{"type":"Point","coordinates":[-69.81889999999999,-25.342895]}},{"type":"Feature","properties":{"name":"Calama"},"geometry":{"type":"Point","coordinates":[-68.64875500000001,-22.258475]}},{"type":"Feature","properties":{"name":"Ollagüe"},"geometry":{"type":"Point","coordinates":[-68.35737500000002,-21.484489999999997]}},{"type":"Feature","properties":{"name":"San Pedro de Atacama"},"geometry":{"type":"Point","coordinates":[-67.89719,-23.50139]}},{"type":"Feature","properties":{"name":"Tocopilla"},"geometry":{"type":"Point","coordinates":[-69.9728075,-22.057952500000003]}},{"type":"Feature","properties":{"name":"María Elena"},"geometry":{"type":"Point","coordinates":[-69.55395000000001,-22.44152]}},{"type":"Feature","properties":{"name":"Copiapó"},"geometry":{"type":"Point","coordinates":[-69.91897,-27.2347125]}},{"type":"Feature","properties":{"name":"Caldera"},"geometry":{"type":"Point","coordinates":[-70.595855,-26.91065]}},{"type":"Feature","properties":{"name":"Tierra Amarilla"},"geometry":{"type":"Point","coordinates":[-69.70894000000001,-27.9374075]}},{"type":"Feature","properties":{"name":"Chañaral"},"geometry":{"type":"Point","coordinates":[-70.4498475,-26.507835000000004]}},{"type":"Feature","properties":{"name":"Diego de Almagro"},"geometry":{"type":"Point","coordinates":[-69.0579875,-26.231895]}},{"type":"Feature","properties":{"name":"Vallenar"},"geometry":{"type":"Point","coordinates":[-70.51201,-28.380750000000003]}},{"type":"Feature","properties":{"name":"Alto del Carmen"},"geometry":{"type":"Point","coordinates":[-70.176185,-28.98481]}},{"type":"Feature","properties":{"name":"Freirina"},"geometry":{"type":"Point","coordinates":[-71.2580375,-28.9865225]}},{"type":"Feature","properties":{"name":"Huasco"},"geometry":{"type":"Point","coordinates":[-71.02887249999999,-28.176575]}},{"type":"Feature","properties":{"name":"La Serena"},"geometry":{"type":"Point","coordinates":[-71.09755000000001,-29.7609]}},{"type":"Feature","properties":{"name":"Coquimbo"},"geometry":{"type":"Point","coordinates":[-71.40383750000001,-30.3283725]}},{"type":"Feature","properties":{"name":"Andacollo"},"geometry":{"type":"Point","coordinates":[-71.1024875,-30.2195625]}},{"type":"Feature","properties":{"name":"La Higuera"},"geometry":{"type":"Point","coordinates":[-70.7871975,-29.3617925]}},{"type":"Feature","properties":{"name":"Paihuano"},"geometry":{"type":"Point","coordinates":[-70.402575,-30.2420275]}},{"type":"Feature","properties":{"name":"Vicuña"},"geometry":{"type":"Point","coordinates":[-70.22016,-29.748874999999998]}},{"type":"Feature","properties":{"name":"Illapel"},"geometry":{"type":"Point","coordinates":[-70.98354,-31.5119]}},{"type":"Feature","properties":{"name":"Canela"},"geometry":{"type":"Point","coordinates":[-71.3784775,-31.321060000000003]}},{"type":"Feature","properties":{"name":"Los Vilos"},"geometry":{"type":"Point","coordinates":[-71.30879750000001,-32.0046875]}},{"type":"Feature","properties":{"name":"Salamanca"},"geometry":{"type":"Point","coordinates":[-70.764275,-31.817387500000002]}},{"type":"Feature","properties":{"name":"Ovalle"},"geometry":{"type":"Point","coordinates":[-71.52132000000002,-30.6516375]}},{"type":"Feature","properties":{"name":"Combarbalá"},"geometry":{"type":"Point","coordinates":[-70.96105250000001,-31.15331]}},{"type":"Feature","properties":{"name":"Monte Patria"},"geometry":{"type":"Point","coordinates":[-70.61581749999999,-30.797375]}},{"type":"Feature","properties":{"name":"Punitaqui"},"geometry":{"type":"Point","coordinates":[-71.4045725,-31.001525]}},{"type":"Feature","properties":{"name":"Río Hurtado"},"geometry":{"type":"Point","coordinates":[-70.79050249999999,-30.390800000000002]}},{"type":"Feature","properties":{"name":"Valparaíso"},"geometry":{"type":"Point","coordinates":[-71.6098375,-33.103285]}},{"type":"Feature","properties":{"name":"Casablanca"},"geometry":{"type":"Point","coordinates":[-71.38481250000001,-33.313955]}},{"type":"Feature","properties":{"name":"Concón"},"geometry":{"type":"Point","coordinates":[-71.456545,-32.9557475]}},{"type":"Feature","properties":{"name":"Juan Fernández"},"geometry":{"type":"Point","coordinates":[-78.8293925,-33.64866750000001]}},{"type":"Feature","properties":{"name":"Puchuncaví"},"geometry":{"type":"Point","coordinates":[-71.39925249999999,-32.7277975]}},{"type":"Feature","properties":{"name":"Quintero"},"geometry":{"type":"Point","coordinates":[-71.4710925,-32.84874249999999]}},{"type":"Feature","properties":{"name":"Viña del Mar"},"geometry":{"type":"Point","coordinates":[-71.5257725,-33.037009999999995]}},{"type":"Feature","properties":{"name":"Isla de Pascua"},"geometry":{"type":"Point","coordinates":[-109.3547725,-27.1109625]}},{"type":"Feature","properties":{"name":"Los Andes"},"geometry":{"type":"Point","coordinates":[-70.2068825,-32.967865]}},{"type":"Feature","properties":{"name":"Calle Larga"},"geometry":{"type":"Point","coordinates":[-70.53518749999999,-32.9506]}},{"type":"Feature","properties":{"name":"Rinconada"},"geometry":{"type":"Point","coordinates":[-70.7115175,-32.8577475]}},{"type":"Feature","properties":{"name":"San Esteban"},"geometry":{"type":"Point","coordinates":[-70.40647,-32.73015]}},{"type":"Feature","properties":{"name":"La Ligua"},"geometry":{"type":"Point","coordinates":[-71.28136250000001,-32.312437499999994]}},{"type":"Feature","properties":{"name":"Cabildo"},"geometry":{"type":"Point","coordinates":[-70.942665,-32.434245]}},{"type":"Feature","properties":{"name":"Papudo"},"geometry":{"type":"Point","coordinates":[-71.3690825,-32.474975]}},{"type":"Feature","properties":{"name":"Petorca"},"geometry":{"type":"Point","coordinates":[-70.80085000000001,-32.1577]}},{"type":"Feature","properties":{"name":"Zapallar"},"geometry":{"type":"Point","coordinates":[-71.3161475,-32.591975]}},{"type":"Feature","properties":{"name":"Quillota"},"geometry":{"type":"Point","coordinates":[-71.26089750000001,-32.906125]}},{"type":"Feature","properties":{"name":"Calera"},"geometry":{"type":"Point","coordinates":[-71.1267325,-32.77926]}},{"type":"Feature","properties":{"name":"Hijuelas"},"geometry":{"type":"Point","coordinates":[-71.08665,-32.9069725]}},{"type":"Feature","properties":{"name":"La Cruz"},"geometry":{"type":"Point","coordinates":[-71.2226225,-32.8280475]}},{"type":"Feature","properties":{"name":"Nogales"},"geometry":{"type":"Point","coordinates":[-71.1618675,-32.6850125]}},{"type":"Feature","properties":{"name":"San Antonio"},"geometry":{"type":"Point","coordinates":[-71.50263499999998,-33.65274]}},{"type":"Feature","properties":{"name":"Algarrobo"},"geometry":{"type":"Point","coordinates":[-71.59845750000001,-33.3086875]}},{"type":"Feature","properties":{"name":"Cartagena"},"geometry":{"type":"Point","coordinates":[-71.41116,-33.543837499999995]}},{"type":"Feature","properties":{"name":"El Quisco"},"geometry":{"type":"Point","coordinates":[-71.6701,-33.42181]}},{"type":"Feature","properties":{"name":"El Tabo"},"geometry":{"type":"Point","coordinates":[-71.58345,-33.4867275]}},{"type":"Feature","properties":{"name":"Santo Domingo"},"geometry":{"type":"Point","coordinates":[-71.67892749999999,-33.823800000000006]}},{"type":"Feature","properties":{"name":"San Felipe"},"geometry":{"type":"Point","coordinates":[-70.80596249999999,-32.70396500000001]}},{"type":"Feature","properties":{"name":"Catemu"},"geometry":{"type":"Point","coordinates":[-70.9542375,-32.701395000000005]}},{"type":"Feature","properties":{"name":"Llaillay"},"geometry":{"type":"Point","coordinates":[-70.9543275,-32.8836125]}},{"type":"Feature","properties":{"name":"Panquehue"},"geometry":{"type":"Point","coordinates":[-70.80543750000001,-32.7911125]}},{"type":"Feature","properties":{"name":"Putaendo"},"geometry":{"type":"Point","coordinates":[-70.48450249999999,-32.4725375]}},{"type":"Feature","properties":{"name":"Santa María"},"geometry":{"type":"Point","coordinates":[-70.6116225,-32.6859625]}},{"type":"Feature","properties":{"name":"Quilpué"},"geometry":{"type":"Point","coordinates":[-71.10569749999999,-33.166582500000004]}},{"type":"Feature","properties":{"name":"Limache"},"geometry":{"type":"Point","coordinates":[-71.22046999999999,-33.08243]}},{"type":"Feature","properties":{"name":"Olmué"},"geometry":{"type":"Point","coordinates":[-71.09287,-33.033735]}},{"type":"Feature","properties":{"name":"Villa Alemana"},"geometry":{"type":"Point","coordinates":[-71.31746249999999,-33.0745375]}},{"type":"Feature","properties":{"name":"Rancagua"},"geometry":{"type":"Point","coordinates":[-70.85336000000001,-34.12085750000001]}},{"type":"Feature","properties":{"name":"Codegua"},"geometry":{"type":"Point","coordinates":[-70.61683000000001,-34.0955775]}},{"type":"Feature","properties":{"name":"Coinco"},"geometry":{"type":"Point","coordinates":[-70.97399750000001,-34.2893375]}},{"type":"Feature","properties":{"name":"Coltauco"},"geometry":{"type":"Point","coordinates":[-71.03789499999999,-34.2258425]}},{"type":"Feature","properties":{"name":"Doñihue"},"geometry":{"type":"Point","coordinates":[-70.92813749999999,-34.191705]}},{"type":"Feature","properties":{"name":"Graneros"},"geometry":{"type":"Point","coordinates":[-70.7697625,-34.0428575]}},{"type":"Feature","properties":{"name":"Las Cabras"},"geometry":{"type":"Point","coordinates":[-71.33614250000001,-34.177482499999996]}},{"type":"Feature","properties":{"name":"Machalí"},"geometry":{"type":"Point","coordinates":[-70.2437475,-34.339712500000005]}},{"type":"Feature","properties":{"name":"Malloa"},"geometry":{"type":"Point","coordinates":[-70.938535,-34.44820000000001]}},{"type":"Feature","properties":{"name":"Mostazal"},"geometry":{"type":"Point","coordinates":[-70.54365,-33.96198749999999]}},{"type":"Feature","properties":{"name":"Olivar"},"geometry":{"type":"Point","coordinates":[-70.8343375,-34.213550000000005]}},{"type":"Feature","properties":{"name":"Peumo"},"geometry":{"type":"Point","coordinates":[-71.231945,-34.322015]}},{"type":"Feature","properties":{"name":"Pichidegua"},"geometry":{"type":"Point","coordinates":[-71.3179875,-34.39247499999999]}},{"type":"Feature","properties":{"name":"Quinta de Tilcoco"},"geometry":{"type":"Point","coordinates":[-70.990665,-34.35751500000001]}},{"type":"Feature","properties":{"name":"Rengo"},"geometry":{"type":"Point","coordinates":[-70.74998,-34.438652499999996]}},{"type":"Feature","properties":{"name":"Requínoa"},"geometry":{"type":"Point","coordinates":[-70.58819,-34.359955]}},{"type":"Feature","properties":{"name":"San Vicente"},"geometry":{"type":"Point","coordinates":[-71.123225,-34.489525]}},{"type":"Feature","properties":{"name":"Pichilemu"},"geometry":{"type":"Point","coordinates":[-71.92174499999999,-34.42425]}},{"type":"Feature","properties":{"name":"La Estrella"},"geometry":{"type":"Point","coordinates":[-71.5862875,-34.2115475]}},{"type":"Feature","properties":{"name":"Litueche"},"geometry":{"type":"Point","coordinates":[-71.646495,-34.070387499999995]}},{"type":"Feature","properties":{"name":"Marchigüe"},"geometry":{"type":"Point","coordinates":[-71.6791525,-34.40705]}},{"type":"Feature","properties":{"name":"Navidad"},"geometry":{"type":"Point","coordinates":[-71.799315,-33.992605]}},{"type":"Feature","properties":{"name":"Paredones"},"geometry":{"type":"Point","coordinates":[-71.92523249999999,-34.659797499999996]}},{"type":"Feature","properties":{"name":"San Fernando"},"geometry":{"type":"Point","coordinates":[-70.62734999999999,-34.754547499999994]}},{"type":"Feature","properties":{"name":"Chépica"},"geometry":{"type":"Point","coordinates":[-71.44643750000002,-34.8221375]}},{"type":"Feature","properties":{"name":"Chimbarongo"},"geometry":{"type":"Point","coordinates":[-70.98907000000001,-34.71984]}},{"type":"Feature","properties":{"name":"Lolol"},"geometry":{"type":"Point","coordinates":[-71.64351749999999,-34.76453]}},{"type":"Feature","properties":{"name":"Nancagua"},"geometry":{"type":"Point","coordinates":[-71.17889,-34.66918999999999]}},{"type":"Feature","properties":{"name":"Palmilla"},"geometry":{"type":"Point","coordinates":[-71.3632825,-34.5487125]}},{"type":"Feature","properties":{"name":"Peralillo"},"geometry":{"type":"Point","coordinates":[-71.5127425,-34.48632500000001]}},{"type":"Feature","properties":{"name":"Placilla"},"geometry":{"type":"Point","coordinates":[-71.086975,-34.6221575]}},{"type":"Feature","properties":{"name":"Pumanque"},"geometry":{"type":"Point","coordinates":[-71.668775,-34.5857125]}},{"type":"Feature","properties":{"name":"Santa Cruz"},"geometry":{"type":"Point","coordinates":[-71.41718750000001,-34.666712499999996]}},{"type":"Feature","properties":{"name":"Talca"},"geometry":{"type":"Point","coordinates":[-71.62461749999999,-35.405205]}},{"type":"Feature","properties":{"name":"Constitución"},"geometry":{"type":"Point","coordinates":[-72.26065,-35.35579500000001]}},{"type":"Feature","properties":{"name":"Curepto"},"geometry":{"type":"Point","coordinates":[-71.9786475,-35.1319625]}},{"type":"Feature","properties":{"name":"Empedrado"},"geometry":{"type":"Point","coordinates":[-72.34189250000001,-35.5865975]}},{"type":"Feature","properties":{"name":"Maule"},"geometry":{"type":"Point","coordinates":[-71.7342375,-35.50639]}},{"type":"Feature","properties":{"name":"Pelarco"},"geometry":{"type":"Point","coordinates":[-71.345425,-35.3767975]}},{"type":"Feature","properties":{"name":"Pencahue"},"geometry":{"type":"Point","coordinates":[-71.81774999999999,-35.3500125]}},{"type":"Feature","properties":{"name":"Río Claro"},"geometry":{"type":"Point","coordinates":[-71.28125500000002,-35.235497499999994]}},{"type":"Feature","properties":{"name":"San Clemente"},"geometry":{"type":"Point","coordinates":[-70.66319750000001,-35.753615]}},{"type":"Feature","properties":{"name":"San Rafael"},"geometry":{"type":"Point","coordinates":[-71.504915,-35.3029475]}},{"type":"Feature","properties":{"name":"Cauquenes"},"geometry":{"type":"Point","coordinates":[-72.261205,-36.012024999999994]}},{"type":"Feature","properties":{"name":"Chanco"},"geometry":{"type":"Point","coordinates":[-72.4570475,-35.7366125]}},{"type":"Feature","properties":{"name":"Pelluhue"},"geometry":{"type":"Point","coordinates":[-72.5616,-35.87933]}},{"type":"Feature","properties":{"name":"Curicó"},"geometry":{"type":"Point","coordinates":[-70.9552075,-35.208612499999994]}},{"type":"Feature","properties":{"name":"Hualañé"},"geometry":{"type":"Point","coordinates":[-71.664375,-35.00811]}},{"type":"Feature","properties":{"name":"Licantén"},"geometry":{"type":"Point","coordinates":[-72.12494750000002,-34.97334]}},{"type":"Feature","properties":{"name":"Molina"},"geometry":{"type":"Point","coordinates":[-70.8023375,-35.4038]}},{"type":"Feature","properties":{"name":"Rauco"},"geometry":{"type":"Point","coordinates":[-71.3206225,-34.904245]}},{"type":"Feature","properties":{"name":"Romeral"},"geometry":{"type":"Point","coordinates":[-70.64151,-35.1075125]}},{"type":"Feature","properties":{"name":"Sagrada Familia"},"geometry":{"type":"Point","coordinates":[-71.55440750000001,-35.1269925]}},{"type":"Feature","properties":{"name":"Teno"},"geometry":{"type":"Point","coordinates":[-70.8552475,-34.921775000000004]}},{"type":"Feature","properties":{"name":"Vichuquén"},"geometry":{"type":"Point","coordinates":[-72.034635,-34.8378275]}},{"type":"Feature","properties":{"name":"Linares"},"geometry":{"type":"Point","coordinates":[-71.26271000000001,-35.978790000000004]}},{"type":"Feature","properties":{"name":"Colbún"},"geometry":{"type":"Point","coordinates":[-70.82920499999999,-36.1679625]}},{"type":"Feature","properties":{"name":"Longaví"},"geometry":{"type":"Point","coordinates":[-71.5756575,-36.0388975]}},{"type":"Feature","properties":{"name":"Parral"},"geometry":{"type":"Point","coordinates":[-71.4354225,-36.3079125]}},{"type":"Feature","properties":{"name":"Retiro"},"geometry":{"type":"Point","coordinates":[-71.8975725,-35.931205000000006]}},{"type":"Feature","properties":{"name":"San Javier"},"geometry":{"type":"Point","coordinates":[-71.89850999999999,-35.626572499999995]}},{"type":"Feature","properties":{"name":"Villa Alegre"},"geometry":{"type":"Point","coordinates":[-71.68380750000001,-35.6800075]}},{"type":"Feature","properties":{"name":"Yerbas Buenas"},"geometry":{"type":"Point","coordinates":[-71.5520375,-35.7283925]}},{"type":"Feature","properties":{"name":"Concepción"},"geometry":{"type":"Point","coordinates":[-72.9627625,-36.817175]}},{"type":"Feature","properties":{"name":"Coronel"},"geometry":{"type":"Point","coordinates":[-73.03119499999998,-37.0189375]}},{"type":"Feature","properties":{"name":"Chiguayante"},"geometry":{"type":"Point","coordinates":[-73.01238749999999,-36.889857500000005]}},{"type":"Feature","properties":{"name":"Florida"},"geometry":{"type":"Point","coordinates":[-72.74171249999999,-36.83135]}},{"type":"Feature","properties":{"name":"Hualqui"},"geometry":{"type":"Point","coordinates":[-72.864205,-37.037775]}},{"type":"Feature","properties":{"name":"Lota"},"geometry":{"type":"Point","coordinates":[-73.1034475,-37.10625]}},{"type":"Feature","properties":{"name":"Penco"},"geometry":{"type":"Point","coordinates":[-72.9001875,-36.752142500000005]}},{"type":"Feature","properties":{"name":"San Pedro de la Paz"},"geometry":{"type":"Point","coordinates":[-73.1122825,-36.86548]}},{"type":"Feature","properties":{"name":"Santa Juana"},"geometry":{"type":"Point","coordinates":[-72.9412575,-37.250365]}},{"type":"Feature","properties":{"name":"Talcahuano"},"geometry":{"type":"Point","coordinates":[-73.08414499999999,-36.754819999999995]}},{"type":"Feature","properties":{"name":"Tomé"},"geometry":{"type":"Point","coordinates":[-72.8751425,-36.633712499999994]}},{"type":"Feature","properties":{"name":"Hualpén"},"geometry":{"type":"Point","coordinates":[-73.1529375,-36.7895975]}},{"type":"Feature","properties":{"name":"Lebu"},"geometry":{"type":"Point","coordinates":[-73.59528,-37.648849999999996]}},{"type":"Feature","properties":{"name":"Arauco"},"geometry":{"type":"Point","coordinates":[-73.54523999999999,-37.30580499999999]}},{"type":"Feature","properties":{"name":"Cañete"},"geometry":{"type":"Point","coordinates":[-73.37571499999999,-37.8362275]}},{"type":"Feature","properties":{"name":"Contulmo"},"geometry":{"type":"Point","coordinates":[-73.2076625,-38.1256125]}},{"type":"Feature","properties":{"name":"Curanilahue"},"geometry":{"type":"Point","coordinates":[-73.25687750000002,-37.48129]}},{"type":"Feature","properties":{"name":"Los Alamos"},"geometry":{"type":"Point","coordinates":[-73.40634999999999,-37.6359875]}},{"type":"Feature","properties":{"name":"Tirúa"},"geometry":{"type":"Point","coordinates":[-73.3682525,-38.2554375]}},{"type":"Feature","properties":{"name":"Los Angeles"},"geometry":{"type":"Point","coordinates":[-72.2806375,-37.416560000000004]}},{"type":"Feature","properties":{"name":"Antuco"},"geometry":{"type":"Point","coordinates":[-71.36536500000001,-37.2199875]}},{"type":"Feature","properties":{"name":"Cabrero"},"geometry":{"type":"Point","coordinates":[-72.3685875,-37.06307]}},{"type":"Feature","properties":{"name":"Laja"},"geometry":{"type":"Point","coordinates":[-72.5907075,-37.310559999999995]}},{"type":"Feature","properties":{"name":"Mulchén"},"geometry":{"type":"Point","coordinates":[-72.2786325,-37.7622025]}},{"type":"Feature","properties":{"name":"Nacimiento"},"geometry":{"type":"Point","coordinates":[-72.82557249999999,-37.458815]}},{"type":"Feature","properties":{"name":"Negrete"},"geometry":{"type":"Point","coordinates":[-72.5975975,-37.61804]}},{"type":"Feature","properties":{"name":"Quilaco"},"geometry":{"type":"Point","coordinates":[-71.5433,-38.064]}},{"type":"Feature","properties":{"name":"Quilleco"},"geometry":{"type":"Point","coordinates":[-71.90895,-37.442725]}},{"type":"Feature","properties":{"name":"San Rosendo"},"geometry":{"type":"Point","coordinates":[-72.71017499999999,-37.2231025]}},{"type":"Feature","properties":{"name":"Santa Bárbara"},"geometry":{"type":"Point","coordinates":[-71.701845,-37.64382]}},{"type":"Feature","properties":{"name":"Tucapel"},"geometry":{"type":"Point","coordinates":[-71.76085499999999,-37.2275175]}},{"type":"Feature","properties":{"name":"Yumbel"},"geometry":{"type":"Point","coordinates":[-72.63492,-37.0771675]}},{"type":"Feature","properties":{"name":"Alto Biobío"},"geometry":{"type":"Point","coordinates":[-71.38661499999999,-37.824557500000004]}},{"type":"Feature","properties":{"name":"Temuco"},"geometry":{"type":"Point","coordinates":[-72.655985,-38.68095999999999]}},{"type":"Feature","properties":{"name":"Carahue"},"geometry":{"type":"Point","coordinates":[-73.36555750000001,-38.58588749999999]}},{"type":"Feature","properties":{"name":"Cunco"},"geometry":{"type":"Point","coordinates":[-72.00794249999998,-38.96545750000001]}},{"type":"Feature","properties":{"name":"Curarrehue"},"geometry":{"type":"Point","coordinates":[-71.60632500000001,-39.455819999999996]}},{"type":"Feature","properties":{"name":"Freire"},"geometry":{"type":"Point","coordinates":[-72.469795,-38.950665]}},{"type":"Feature","properties":{"name":"Galvarino"},"geometry":{"type":"Point","coordinates":[-72.8368625,-38.4214875]}},{"type":"Feature","properties":{"name":"Gorbea"},"geometry":{"type":"Point","coordinates":[-72.68122500000001,-39.1546925]}},{"type":"Feature","properties":{"name":"Lautaro"},"geometry":{"type":"Point","coordinates":[-72.4230475,-38.55373]}},{"type":"Feature","properties":{"name":"Loncoche"},"geometry":{"type":"Point","coordinates":[-72.6146525,-39.3548825]}},{"type":"Feature","properties":{"name":"Melipeuco"},"geometry":{"type":"Point","coordinates":[-71.58975750000002,-38.8557625]}},{"type":"Feature","properties":{"name":"Nueva Imperial"},"geometry":{"type":"Point","coordinates":[-72.9460975,-38.756825000000006]}},{"type":"Feature","properties":{"name":"Padre Las Casas"},"geometry":{"type":"Point","coordinates":[-72.52255,-38.77976]}},{"type":"Feature","properties":{"name":"Perquenco"},"geometry":{"type":"Point","coordinates":[-72.4080575,-38.4127875]}},{"type":"Feature","properties":{"name":"Pitrufquén"},"geometry":{"type":"Point","coordinates":[-72.9111375,-39.08131]}},{"type":"Feature","properties":{"name":"Pucón"},"geometry":{"type":"Point","coordinates":[-71.88480249999999,-39.2989775]}},{"type":"Feature","properties":{"name":"Saavedra"},"geometry":{"type":"Point","coordinates":[-73.2808875,-38.8522175]}},{"type":"Feature","properties":{"name":"Teodoro Schmidt"},"geometry":{"type":"Point","coordinates":[-73.2045325,-39.02662500000001]}},{"type":"Feature","properties":{"name":"Toltén"},"geometry":{"type":"Point","coordinates":[-73.04394,-39.202225]}},{"type":"Feature","properties":{"name":"Vilcún"},"geometry":{"type":"Point","coordinates":[-72.24154,-38.6969275]}},{"type":"Feature","properties":{"name":"Villarrica"},"geometry":{"type":"Point","coordinates":[-72.212995,-39.302685000000004]}},{"type":"Feature","properties":{"name":"Cholchol"},"geometry":{"type":"Point","coordinates":[-72.90024499999998,-38.56914]}},{"type":"Feature","properties":{"name":"Angol"},"geometry":{"type":"Point","coordinates":[-72.85386249999999,-37.72499249999999]}},{"type":"Feature","properties":{"name":"Collipulli"},"geometry":{"type":"Point","coordinates":[-72.01464999999999,-38.0876975]}},{"type":"Feature","properties":{"name":"Curacautín"},"geometry":{"type":"Point","coordinates":[-71.7970925,-38.42117749999999]}},{"type":"Feature","properties":{"name":"Ercilla"},"geometry":{"type":"Point","coordinates":[-72.38234499999999,-38.0985825]}},{"type":"Feature","properties":{"name":"Lonquimay"},"geometry":{"type":"Point","coordinates":[-71.21543999999999,-38.558847500000006]}},{"type":"Feature","properties":{"name":"Los Sauces"},"geometry":{"type":"Point","coordinates":[-72.8091,-37.992685]}},{"type":"Feature","properties":{"name":"Lumaco"},"geometry":{"type":"Point","coordinates":[-73.078615,-38.3058425]}},{"type":"Feature","properties":{"name":"Purén"},"geometry":{"type":"Point","coordinates":[-73.05629499999999,-38.023022499999996]}},{"type":"Feature","properties":{"name":"Renaico"},"geometry":{"type":"Point","coordinates":[-72.54239749999999,-37.7232525]}},{"type":"Feature","properties":{"name":"Traiguén"},"geometry":{"type":"Point","coordinates":[-72.66314249999999,-38.24165]}},{"type":"Feature","properties":{"name":"Victoria"},"geometry":{"type":"Point","coordinates":[-72.12282250000001,-38.291952499999994]}},{"type":"Feature","properties":{"name":"Puerto Montt"},"geometry":{"type":"Point","coordinates":[-72.59194749999999,-41.4852525]}},{"type":"Feature","properties":{"name":"Calbuco"},"geometry":{"type":"Point","coordinates":[-73.22643750000002,-41.674545]}},{"type":"Feature","properties":{"name":"Cochamó"},"geometry":{"type":"Point","coordinates":[-72.0714375,-41.73015]}},{"type":"Feature","properties":{"name":"Fresia"},"geometry":{"type":"Point","coordinates":[-73.52802500000001,-41.1625325]}},{"type":"Feature","properties":{"name":"Frutillar"},"geometry":{"type":"Point","coordinates":[-73.1119825,-41.0849775]}},{"type":"Feature","properties":{"name":"Los Muermos"},"geometry":{"type":"Point","coordinates":[-73.542055,-41.412455]}},{"type":"Feature","properties":{"name":"Llanquihue"},"geometry":{"type":"Point","coordinates":[-73.2073875,-41.235209999999995]}},{"type":"Feature","properties":{"name":"Maullín"},"geometry":{"type":"Point","coordinates":[-73.4063375,-41.618595000000006]}},{"type":"Feature","properties":{"name":"Puerto Varas"},"geometry":{"type":"Point","coordinates":[-72.16382250000001,-41.140857499999996]}},{"type":"Feature","properties":{"name":"Castro"},"geometry":{"type":"Point","coordinates":[-73.8051,-42.413207500000006]}},{"type":"Feature","properties":{"name":"Ancud"},"geometry":{"type":"Point","coordinates":[-73.78712,-42.023205]}},{"type":"Feature","properties":{"name":"Chonchi"},"geometry":{"type":"Point","coordinates":[-73.9423075,-42.69586]}},{"type":"Feature","properties":{"name":"Curaco de Vélez"},"geometry":{"type":"Point","coordinates":[-73.5608625,-42.432745000000004]}},{"type":"Feature","properties":{"name":"Dalcahue"},"geometry":{"type":"Point","coordinates":[-73.99316,-42.335825]}},{"type":"Feature","properties":{"name":"Puqueldón"},"geometry":{"type":"Point","coordinates":[-73.63701,-42.615114999999996]}},{"type":"Feature","properties":{"name":"Queilén"},"geometry":{"type":"Point","coordinates":[-73.54813,-42.81693249999999]}},{"type":"Feature","properties":{"name":"Quellón"},"geometry":{"type":"Point","coordinates":[-74.0103775,-43.110587499999994]}},{"type":"Feature","properties":{"name":"Quemchi"},"geometry":{"type":"Point","coordinates":[-73.50946250000001,-42.0620875]}},{"type":"Feature","properties":{"name":"Quinchao"},"geometry":{"type":"Point","coordinates":[-73.4155975,-42.5612175]}},{"type":"Feature","properties":{"name":"Osorno"},"geometry":{"type":"Point","coordinates":[-73.0771175,-40.59192]}},{"type":"Feature","properties":{"name":"Puerto Octay"},"geometry":{"type":"Point","coordinates":[-72.595475,-40.950677500000005]}},{"type":"Feature","properties":{"name":"Purranque"},"geometry":{"type":"Point","coordinates":[-73.5600125,-40.953945]}},{"type":"Feature","properties":{"name":"Puyehue"},"geometry":{"type":"Point","coordinates":[-72.27931500000001,-40.772639999999996]}},{"type":"Feature","properties":{"name":"Río Negro"},"geometry":{"type":"Point","coordinates":[-73.26806,-40.7607275]}},{"type":"Feature","properties":{"name":"San Juan de la Costa"},"geometry":{"type":"Point","coordinates":[-73.5426125,-40.5323925]}},{"type":"Feature","properties":{"name":"San Pablo"},"geometry":{"type":"Point","coordinates":[-73.1654025,-40.416304999999994]}},{"type":"Feature","properties":{"name":"Chaitén"},"geometry":{"type":"Point","coordinates":[-72.6296475,-43.4287875]}},{"type":"Feature","properties":{"name":"Futaleufú"},"geometry":{"type":"Point","coordinates":[-71.99829,-43.205369999999995]}},{"type":"Feature","properties":{"name":"Hualaihué"},"geometry":{"type":"Point","coordinates":[-72.20553,-42.50851]}},{"type":"Feature","properties":{"name":"Palena"},"geometry":{"type":"Point","coordinates":[-72.00675749999999,-43.714462499999996]}},{"type":"Feature","properties":{"name":"Coyhaique"},"geometry":{"type":"Point","coordinates":[-72.0840325,-45.780865]}},{"type":"Feature","properties":{"name":"Lago Verde"},"geometry":{"type":"Point","coordinates":[-72.03473500000001,-44.5225375]}},{"type":"Feature","properties":{"name":"Aysén"},"geometry":{"type":"Point","coordinates":[-72.42377499999999,-45.3633675]}},{"type":"Feature","properties":{"name":"Cisnes"},"geometry":{"type":"Point","coordinates":[-72.4770275,-44.0449175]}},{"type":"Feature","properties":{"name":"Guaitecas"},"geometry":{"type":"Point","coordinates":[-74.05527,-43.85826]}},{"type":"Feature","properties":{"name":"Cochrane"},"geometry":{"type":"Point","coordinates":[-72.8072125,-47.4241225]}},{"type":"Feature","properties":{"name":"O'Higgins"},"geometry":{"type":"Point","coordinates":[-72.94386250000001,-48.657824999999995]}},{"type":"Feature","properties":{"name":"Tortel"},"geometry":{"type":"Point","coordinates":[-73.73838249999999,-47.3668625]}},{"type":"Feature","properties":{"name":"Chile Chico"},"geometry":{"type":"Point","coordinates":[-73.08610250000001,-46.81445]}},{"type":"Feature","properties":{"name":"Río Ibáñez"},"geometry":{"type":"Point","coordinates":[-72.59949999999999,-46.31887749999999]}},{"type":"Feature","properties":{"name":"Punta Arenas"},"geometry":{"type":"Point","coordinates":[-71.38895000000001,-53.566815000000005]}},{"type":"Feature","properties":{"name":"Laguna Blanca"},"geometry":{"type":"Point","coordinates":[-71.263595,-52.223225]}},{"type":"Feature","properties":{"name":"Río Verde"},"geometry":{"type":"Point","coordinates":[-72.01376,-52.8481325]}},{"type":"Feature","properties":{"name":"San Gregorio"},"geometry":{"type":"Point","coordinates":[-70.3569825,-52.3231575]}},{"type":"Feature","properties":{"name":"Cabo de Hornos"},"geometry":{"type":"Point","coordinates":[-69.0231375,-54.801275]}},{"type":"Feature","properties":{"name":"Porvenir"},"geometry":{"type":"Point","coordinates":[-69.0245275,-53.282825]}},{"type":"Feature","properties":{"name":"Primavera"},"geometry":{"type":"Point","coordinates":[-69.3828475,-52.842937500000005]}},{"type":"Feature","properties":{"name":"Timaukel"},"geometry":{"type":"Point","coordinates":[-69.168605,-54.039275]}},{"type":"Feature","properties":{"name":"Natales"},"geometry":{"type":"Point","coordinates":[-73.452375,-49.306935]}},{"type":"Feature","properties":{"name":"Torres del Paine"},"geometry":{"type":"Point","coordinates":[-72.8991125,-51.0583625]}},{"type":"Feature","properties":{"name":"Santiago"},"geometry":{"type":"Point","coordinates":[-70.65316,-33.456399999999995]}},{"type":"Feature","properties":{"name":"Cerrillos"},"geometry":{"type":"Point","coordinates":[-70.7169375,-33.500854999999994]}},{"type":"Feature","properties":{"name":"Cerro Navia"},"geometry":{"type":"Point","coordinates":[-70.73822000000001,-33.423527500000006]}},{"type":"Feature","properties":{"name":"Conchalí"},"geometry":{"type":"Point","coordinates":[-70.6728225,-33.38552000000001]}},{"type":"Feature","properties":{"name":"El Bosque"},"geometry":{"type":"Point","coordinates":[-70.67581,-33.5609975]}},{"type":"Feature","properties":{"name":"Estación Central"},"geometry":{"type":"Point","coordinates":[-70.692085,-33.46427]}},{"type":"Feature","properties":{"name":"Huechuraba"},"geometry":{"type":"Point","coordinates":[-70.62254999999999,-33.36245]}},{"type":"Feature","properties":{"name":"Independencia"},"geometry":{"type":"Point","coordinates":[-70.665205,-33.4115125]}},{"type":"Feature","properties":{"name":"La Cisterna"},"geometry":{"type":"Point","coordinates":[-70.66417,-33.5307025]}},{"type":"Feature","properties":{"name":"La Florida"},"geometry":{"type":"Point","coordinates":[-70.565355,-33.533359999999995]}},{"type":"Feature","properties":{"name":"La Granja"},"geometry":{"type":"Point","coordinates":[-70.62316,-33.527725000000004]}},{"type":"Feature","properties":{"name":"La Pintana"},"geometry":{"type":"Point","coordinates":[-70.638995,-33.5823]}},{"type":"Feature","properties":{"name":"La Reina"},"geometry":{"type":"Point","coordinates":[-70.5429625,-33.44452749999999]}},{"type":"Feature","properties":{"name":"Las Condes"},"geometry":{"type":"Point","coordinates":[-70.49871250000001,-33.40614]}},{"type":"Feature","properties":{"name":"Lo Barnechea"},"geometry":{"type":"Point","coordinates":[-70.35529000000001,-33.30298750000001]}},{"type":"Feature","properties":{"name":"Lo Espejo"},"geometry":{"type":"Point","coordinates":[-70.6898375,-33.519785000000006]}},{"type":"Feature","properties":{"name":"Lo Prado"},"geometry":{"type":"Point","coordinates":[-70.72408,-33.44732]}},{"type":"Feature","properties":{"name":"Macul"},"geometry":{"type":"Point","coordinates":[-70.601055,-33.489200000000004]}},{"type":"Feature","properties":{"name":"Maipú"},"geometry":{"type":"Point","coordinates":[-70.77712499999998,-33.508]}},{"type":"Feature","properties":{"name":"Ñuñoa"},"geometry":{"type":"Point","coordinates":[-70.60338000000002,-33.4594875]}},{"type":"Feature","properties":{"name":"Pedro Aguirre Cerda"},"geometry":{"type":"Point","coordinates":[-70.6762575,-33.49115]}},{"type":"Feature","properties":{"name":"Peñalolén"},"geometry":{"type":"Point","coordinates":[-70.5481725,-33.48332]}},{"type":"Feature","properties":{"name":"Providencia"},"geometry":{"type":"Point","coordinates":[-70.61013,-33.430515]}},{"type":"Feature","properties":{"name":"Pudahuel"},"geometry":{"type":"Point","coordinates":[-70.88222999999999,-33.42973500000001]}},{"type":"Feature","properties":{"name":"Quilicura"},"geometry":{"type":"Point","coordinates":[-70.72716249999999,-33.35568]}},{"type":"Feature","properties":{"name":"Quinta Normal"},"geometry":{"type":"Point","coordinates":[-70.7034625,-33.42941999999999]}},{"type":"Feature","properties":{"name":"Recoleta"},"geometry":{"type":"Point","coordinates":[-70.63559000000001,-33.407684999999994]}},{"type":"Feature","properties":{"name":"Renca"},"geometry":{"type":"Point","coordinates":[-70.74619249999999,-33.398250000000004]}},{"type":"Feature","properties":{"name":"San Joaquín"},"geometry":{"type":"Point","coordinates":[-70.627365,-33.502872499999995]}},{"type":"Feature","properties":{"name":"San Miguel"},"geometry":{"type":"Point","coordinates":[-70.65303499999999,-33.502950000000006]}},{"type":"Feature","properties":{"name":"San Ramón"},"geometry":{"type":"Point","coordinates":[-70.6422575,-33.54690750000001]}},{"type":"Feature","properties":{"name":"Vitacura"},"geometry":{"type":"Point","coordinates":[-70.5733175,-33.375777500000005]}},{"type":"Feature","properties":{"name":"Puente Alto"},"geometry":{"type":"Point","coordinates":[-70.56294249999999,-33.590615]}},{"type":"Feature","properties":{"name":"Pirque"},"geometry":{"type":"Point","coordinates":[-70.534585,-33.69855]}},{"type":"Feature","properties":{"name":"San José de Maipo"},"geometry":{"type":"Point","coordinates":[-70.15074,-33.6400675]}},{"type":"Feature","properties":{"name":"Colina"},"geometry":{"type":"Point","coordinates":[-70.61418,-33.149570000000004]}},{"type":"Feature","properties":{"name":"Lampa"},"geometry":{"type":"Point","coordinates":[-70.8682675,-33.305687500000005]}},{"type":"Feature","properties":{"name":"Tiltil"},"geometry":{"type":"Point","coordinates":[-70.88233000000001,-33.06804]}},{"type":"Feature","properties":{"name":"San Bernardo"},"geometry":{"type":"Point","coordinates":[-70.7118725,-33.6102625]}},{"type":"Feature","properties":{"name":"Buin"},"geometry":{"type":"Point","coordinates":[-70.69096,-33.714725]}},{"type":"Feature","properties":{"name":"Calera de Tango"},"geometry":{"type":"Point","coordinates":[-70.78635,-33.62128]}},{"type":"Feature","properties":{"name":"Paine"},"geometry":{"type":"Point","coordinates":[-70.639555,-33.844835]}},{"type":"Feature","properties":{"name":"Melipilla"},"geometry":{"type":"Point","coordinates":[-71.24927500000001,-33.6978875]}},{"type":"Feature","properties":{"name":"Alhué"},"geometry":{"type":"Point","coordinates":[-71.08515499999999,-34.059462499999995]}},{"type":"Feature","properties":{"name":"Curacaví"},"geometry":{"type":"Point","coordinates":[-71.1069675,-33.352335000000004]}},{"type":"Feature","properties":{"name":"María Pinto"},"geometry":{"type":"Point","coordinates":[-71.25221499999999,-33.489419999999996]}},{"type":"Feature","properties":{"name":"San Pedro"},"geometry":{"type":"Point","coordinates":[-71.3720725,-33.973215]}},{"type":"Feature","properties":{"name":"Talagante"},"geometry":{"type":"Point","coordinates":[-70.84454,-33.680719999999994]}},{"type":"Feature","properties":{"name":"El Monte"},"geometry":{"type":"Point","coordinates":[-71.0404125,-33.672505]}},{"type":"Feature","properties":{"name":"Isla de Maipo"},"geometry":{"type":"Point","coordinates":[-70.873285,-33.74138]}},{"type":"Feature","properties":{"name":"Padre Hurtado"},"geometry":{"type":"Point","coordinates":[-70.89324750000002,-33.5484025]}},{"type":"Feature","properties":{"name":"Peñaflor"},"geometry":{"type":"Point","coordinates":[-70.8749,-33.607572499999996]}},{"type":"Feature","properties":{"name":"Valdivia"},"geometry":{"type":"Point","coordinates":[-73.0679925,-39.853525]}},{"type":"Feature","properties":{"name":"Corral"},"geometry":{"type":"Point","coordinates":[-73.41067749999999,-40.017325]}},{"type":"Feature","properties":{"name":"Lanco"},"geometry":{"type":"Point","coordinates":[-72.602255,-39.519475]}},{"type":"Feature","properties":{"name":"Los Lagos"},"geometry":{"type":"Point","coordinates":[-72.6242375,-39.863345]}},{"type":"Feature","properties":{"name":"Máfil"},"geometry":{"type":"Point","coordinates":[-72.9098,-39.6885325]}},{"type":"Feature","properties":{"name":"Mariquina"},"geometry":{"type":"Point","coordinates":[-73.0544125,-39.501055]}},{"type":"Feature","properties":{"name":"Paillaco"},"geometry":{"type":"Point","coordinates":[-72.9043325,-40.0469275]}},{"type":"Feature","properties":{"name":"Panguipulli"},"geometry":{"type":"Point","coordinates":[-71.9699875,-39.677150000000005]}},{"type":"Feature","properties":{"name":"La Unión"},"geometry":{"type":"Point","coordinates":[-73.208475,-40.229845]}},{"type":"Feature","properties":{"name":"Futrono"},"geometry":{"type":"Point","coordinates":[-72.02462499999999,-40.113285]}},{"type":"Feature","properties":{"name":"Lago Ranco"},"geometry":{"type":"Point","coordinates":[-72.1435525,-40.3944025]}},{"type":"Feature","properties":{"name":"Río Bueno"},"geometry":{"type":"Point","coordinates":[-72.72663,-40.4195]}},{"type":"Feature","properties":{"name":"Arica"},"geometry":{"type":"Point","coordinates":[-70.0040375,-18.540155]}},{"type":"Feature","properties":{"name":"Camarones"},"geometry":{"type":"Point","coordinates":[-69.546375,-18.87128]}},{"type":"Feature","properties":{"name":"Putre"},"geometry":{"type":"Point","coordinates":[-69.323375,-18.4648675]}},{"type":"Feature","properties":{"name":"General Lagos"},"geometry":{"type":"Point","coordinates":[-69.56555749999998,-17.8140375]}},{"type":"Feature","properties":{"name":"Chillán"},"geometry":{"type":"Point","coordinates":[-72.0860875,-36.5977875]}},{"type":"Feature","properties":{"name":"Bulnes"},"geometry":{"type":"Point","coordinates":[-72.300345,-36.8000775]}},{"type":"Feature","properties":{"name":"Chillán Viejo"},"geometry":{"type":"Point","coordinates":[-72.1856775,-36.6776925]}},{"type":"Feature","properties":{"name":"El Carmen"},"geometry":{"type":"Point","coordinates":[-71.76519,-36.91747]}},{"type":"Feature","properties":{"name":"Pemuco"},"geometry":{"type":"Point","coordinates":[-72.2468525,-36.9515725]}},{"type":"Feature","properties":{"name":"Pinto"},"geometry":{"type":"Point","coordinates":[-71.4355375,-36.94435]}},{"type":"Feature","properties":{"name":"Quillón"},"geometry":{"type":"Point","coordinates":[-72.5096475,-36.7872975]}},{"type":"Feature","properties":{"name":"San Ignacio"},"geometry":{"type":"Point","coordinates":[-72.0347125,-36.806067500000005]}},{"type":"Feature","properties":{"name":"Yungay"},"geometry":{"type":"Point","coordinates":[-72.14312749999999,-37.121175]}},{"type":"Feature","properties":{"name":"Quirihue"},"geometry":{"type":"Point","coordinates":[-72.549975,-36.1984125]}},{"type":"Feature","properties":{"name":"Cobquecura"},"geometry":{"type":"Point","coordinates":[-72.7249975,-36.22987500000001]}},{"type":"Feature","properties":{"name":"Coelemu"},"geometry":{"type":"Point","coordinates":[-72.73676,-36.54333]}},{"type":"Feature","properties":{"name":"Ninhue"},"geometry":{"type":"Point","coordinates":[-72.40794000000001,-36.406432499999994]}},{"type":"Feature","properties":{"name":"Portezuelo"},"geometry":{"type":"Point","coordinates":[-72.46112500000001,-36.545125000000006]}},{"type":"Feature","properties":{"name":"Ranquil"},"geometry":{"type":"Point","coordinates":[-72.584705,-36.6338875]}},{"type":"Feature","properties":{"name":"Treguaco"},"geometry":{"type":"Point","coordinates":[-72.60800499999999,-36.474447500000004]}},{"type":"Feature","properties":{"name":"San Carlos"},"geometry":{"type":"Point","coordinates":[-71.95248999999998,-36.4220625]}},{"type":"Feature","properties":{"name":"Coihueco"},"geometry":{"type":"Point","coordinates":[-71.68128750000001,-36.66715]}},{"type":"Feature","properties":{"name":"Ñiquén"},"geometry":{"type":"Point","coordinates":[-72.04985,-36.2264875]}},{"type":"Feature","properties":{"name":"San Fabián"},"geometry":{"type":"Point","coordinates":[-71.1965,-36.578925]}},{"type":"Feature","properties":{"name":"San Nicolás"},"geometry":{"type":"Point","coordinates":[-72.213655,-36.4637175]}}]}