{
"type": "FeatureCollection",
"name": "volcanes_geologicamente_activos",
"crs": { "type": "name", "properties": { "name": "urn:ogc:def:crs:OGC:1.3:CRS84" } },
"xy_coordinate_resolution": 1e-05,
"features": [
{"type":"Feature","properties":{"numero":60.0,"volcan":"Tacora","long":-69.77278711,"lat":-17.72095851,"categoria":"Baja","region":"XV"},"geometry":{"type":"Point","coordinates":[-69.77279,-17.72096]}},
{"type":"Feature","properties":{"numero":42.0,"volcan":"Taapaca","long":-69.512,"lat":-18.103,"categoria":"Moderada","region":"XV"},"geometry":{"type":"Point","coordinates":[-69.512,-18.103]}},
{"type":"Feature","properties":{"numero":17.0,"volcan":"Parinacota","long":-69.144,"lat":-18.165,"categoria":"Alta","region":"XV"},"geometry":{"type":"Point","coordinates":[-69.143,-18.164]}},
{"type":"Feature","properties":{"numero":0.0,"volcan":"Arintica","long":-69.05115289,"lat":-18.74600487,"categoria":"Sin ranking","region":"XV"},"geometry":{"type":"Point","coordinates":[-69.05115,-18.746]}},
{"type":"Feature","properties":{"numero":41.0,"volcan":"Isluga","long":-68.831,"lat":-19.145,"categoria":"Moderada","region":"I"},"geometry":{"type":"Point","coordinates":[-68.831,-19.145]}},
{"type":"Feature","properties":{"numero":61.0,"volcan":"Olca-Paruma","long":-68.479,"lat":-20.947,"categoria":"Baja","region":"II"},"geometry":{"type":"Point","coordinates":[-68.479,-20.947]}},
{"type":"Feature","properties":{"numero":71.0,"volcan":"Aucanquilcha","long":-68.46824132,"lat":-21.22080575,"categoria":"Baja","region":"II"},"geometry":{"type":"Point","coordinates":[-68.46824,-21.22081]}},
{"type":"Feature","properties":{"numero":77.0,"volcan":"Apacheta (Cerro del Azufre)","long":-68.2396562,"lat":-21.78313888,"categoria":"Muy Baja","region":"II"},"geometry":{"type":"Point","coordinates":[-68.23966,-21.78314]}},
{"type":"Feature","properties":{"numero":36.0,"volcan":"San Pedro","long":-68.396,"lat":-21.887,"categoria":"Moderada","region":"II"},"geometry":{"type":"Point","coordinates":[-68.396,-21.887]}},
{"type":"Feature","properties":{"numero":69.0,"volcan":"Putana","long":-67.852,"lat":-22.551,"categoria":"Baja","region":"II"},"geometry":{"type":"Point","coordinates":[-67.852,-22.551]}},
{"type":"Feature","properties":{"numero":72.0,"volcan":"Sairecabur","long":-67.892,"lat":-22.72,"categoria":"Muy Baja","region":"II"},"geometry":{"type":"Point","coordinates":[-67.892,-22.72]}},
{"type":"Feature","properties":{"numero":68.0,"volcan":"Licancabur","long":-67.88,"lat":-22.83,"categoria":"Baja","region":"II"},"geometry":{"type":"Point","coordinates":[-67.88,-22.83]}},
{"type":"Feature","properties":{"numero":86.0,"volcan":"Alítar","long":-67.63769271,"lat":-23.14401169,"categoria":"Muy Baja","region":"II"},"geometry":{"type":"Point","coordinates":[-67.63769,-23.14401]}},
{"type":"Feature","properties":{"numero":0.0,"volcan":"Colachi","long":-67.646,"lat":-23.24,"categoria":"Sin ranking","region":"II"},"geometry":{"type":"Point","coordinates":[-67.646,-23.24]}},
{"type":"Feature","properties":{"numero":81.0,"volcan":"Acamarachi","long":-67.618,"lat":-23.29,"categoria":"Muy Baja","region":"II"},"geometry":{"type":"Point","coordinates":[-67.618,-23.29]}},
{"type":"Feature","properties":{"numero":75.0,"volcan":"Chiliques","long":-67.70182685,"lat":-23.58077658,"categoria":"Muy Baja","region":"II"},"geometry":{"type":"Point","coordinates":[-67.70183,-23.58078]}},
{"type":"Feature","properties":{"numero":0.0,"volcan":"Miscanti","long":-67.71637428,"lat":-23.67345461,"categoria":"Sin ranking","region":"II"},"geometry":{"type":"Point","coordinates":[-67.71637,-23.67345]}},
{"type":"Feature","properties":{"numero":80.0,"volcan":"Puntas Negras","long":-67.53973083,"lat":-23.74563459,"categoria":"Muy Baja","region":"II"},"geometry":{"type":"Point","coordinates":[-67.53973,-23.74563]}},
{"type":"Feature","properties":{"numero":0.0,"volcan":"Miñiques","long":-67.7581744,"lat":-23.8163288,"categoria":"Sin ranking","region":"II"},"geometry":{"type":"Point","coordinates":[-67.75817,-23.81633]}},
{"type":"Feature","properties":{"numero":0.0,"volcan":"Púlar","long":-68.05623333,"lat":-24.19197397,"categoria":"Sin ranking","region":"II"},"geometry":{"type":"Point","coordinates":[-68.05623,-24.19197]}},
{"type":"Feature","properties":{"numero":48.0,"volcan":"Socompa","long":-68.245,"lat":-24.395,"categoria":"Moderada","region":"II"},"geometry":{"type":"Point","coordinates":[-68.245,-24.395]}},
{"type":"Feature","properties":{"numero":83.0,"volcan":"Llullaillaco","long":-68.534,"lat":-24.72,"categoria":"Muy Baja","region":"II"},"geometry":{"type":"Point","coordinates":[-68.534,-24.72]}},
{"type":"Feature","properties":{"numero":0.0,"volcan":"Escorial","long":-68.36650202,"lat":-25.08242812,"categoria":"Sin ranking","region":"II"},"geometry":{"type":"Point","coordinates":[-68.3665,-25.08243]}},
{"type":"Feature","properties":{"numero":84.0,"volcan":"Cordón del Azufre","long":-68.522,"lat":-25.336,"categoria":"Muy Baja","region":"II"},"geometry":{"type":"Point","coordinates":[-68.522,-25.336]}},
{"type":"Feature","properties":{"numero":26.0,"volcan":"Quetrupillán","long":-71.717,"lat":-39.498,"categoria":"Alta","region":"XIV"},"geometry":{"type":"Point","coordinates":[-71.717,-39.498]}},
{"type":"Feature","properties":{"numero":33.0,"volcan":"Ralún","long":-72.31,"lat":-41.42,"categoria":"Moderada","region":"X"},"geometry":{"type":"Point","coordinates":[-72.31,-41.42]}},
{"type":"Feature","properties":{"numero":70.0,"volcan":"Lastarria","long":-68.51,"lat":-25.17,"categoria":"Baja","region":"II"},"geometry":{"type":"Point","coordinates":[-68.51,-25.17]}},
{"type":"Feature","properties":{"numero":1.0,"volcan":"Villarrica","long":-71.939,"lat":-39.42,"categoria":"Muy Alta","region":"IX"},"geometry":{"type":"Point","coordinates":[-71.939,-39.42]}},
{"type":"Feature","properties":{"numero":25.0,"volcan":"Guallatiri","long":-69.09,"lat":-18.419,"categoria":"Alta","region":"XV"},"geometry":{"type":"Point","coordinates":[-69.09,-18.419]}},
{"type":"Feature","properties":{"numero":45.0,"volcan":"Irruputuncu","long":-68.55943714,"lat":-20.73255575,"categoria":"Moderada","region":"I"},"geometry":{"type":"Point","coordinates":[-68.55944,-20.73256]}},
{"type":"Feature","properties":{"numero":66.0,"volcan":"Ollagüe","long":-68.17909438,"lat":-21.30246293,"categoria":"Baja","region":"II"},"geometry":{"type":"Point","coordinates":[-68.17909,-21.30246]}},
{"type":"Feature","properties":{"numero":10.0,"volcan":"Nevados de Chillán","long":-71.368,"lat":-36.871,"categoria":"Muy Alta","region":"VIII"},"geometry":{"type":"Point","coordinates":[-71.368,-36.871]}},
{"type":"Feature","properties":{"numero":13.0,"volcan":"Antuco","long":-71.351,"lat":-37.41,"categoria":"Muy Alta","region":"VIII"},"geometry":{"type":"Point","coordinates":[-71.351,-37.41]}},
{"type":"Feature","properties":{"numero":15.0,"volcan":"Copahue","long":-71.17,"lat":-37.85,"categoria":"Alta","region":"VIII"},"geometry":{"type":"Point","coordinates":[-71.17,-37.85]}},
{"type":"Feature","properties":{"numero":18.0,"volcan":"Callaqui","long":-71.446,"lat":-37.926,"categoria":"Alta","region":"VIII"},"geometry":{"type":"Point","coordinates":[-71.446,-37.926]}},
{"type":"Feature","properties":{"numero":11.0,"volcan":"Lonquimay","long":-71.589,"lat":-38.379,"categoria":"Muy Alta","region":"IX"},"geometry":{"type":"Point","coordinates":[-71.589,-38.379]}},
{"type":"Feature","properties":{"numero":3.0,"volcan":"Llaima","long":-71.733,"lat":-38.694,"categoria":"Muy Alta","region":"IX"},"geometry":{"type":"Point","coordinates":[-71.733,-38.694]}},
{"type":"Feature","properties":{"numero":0.0,"volcan":"Nevados de Incahuasi","long":-68.292,"lat":-27.035,"categoria":"Sin ranking","region":"III"},"geometry":{"type":"Point","coordinates":[-68.292,-27.035]}},
{"type":"Feature","properties":{"numero":0.0,"volcan":"El Solo","long":-68.708,"lat":-27.107,"categoria":"Sin ranking","region":"III"},"geometry":{"type":"Point","coordinates":[-68.708,-27.107]}},
{"type":"Feature","properties":{"numero":82.0,"volcan":"Ojos del Salado","long":-68.541,"lat":-27.11,"categoria":"Muy Baja","region":"III"},"geometry":{"type":"Point","coordinates":[-68.541,-27.11]}},
{"type":"Feature","properties":{"numero":31.0,"volcan":"Tupungatito","long":-69.81554078000001,"lat":-33.39128387,"categoria":"Alta","region":"RM"},"geometry":{"type":"Point","coordinates":[-69.802,-33.401]}},
{"type":"Feature","properties":{"numero":0.0,"volcan":"Marmolejo","long":-69.87851391,"lat":-33.73422907,"categoria":"Sin ranking","region":"RM"},"geometry":{"type":"Point","coordinates":[-69.87851,-33.73423]}},
{"type":"Feature","properties":{"numero":49.0,"volcan":"San José","long":-69.89526483,"lat":-33.7895965,"categoria":"Moderada","region":"RM"},"geometry":{"type":"Point","coordinates":[-69.89526,-33.7896]}},
{"type":"Feature","properties":{"numero":52.0,"volcan":"Maipo","long":-69.83184153000001,"lat":-34.16400235,"categoria":"Moderada","region":"RM"},"geometry":{"type":"Point","coordinates":[-69.83184,-34.164]}},
{"type":"Feature","properties":{"numero":62.0,"volcan":"Palomo","long":-70.29676174,"lat":-34.61100456,"categoria":"Baja","region":"VI"},"geometry":{"type":"Point","coordinates":[-70.29676,-34.611]}},
{"type":"Feature","properties":{"numero":50.0,"volcan":"Tinguiririca","long":-70.34,"lat":-34.817,"categoria":"Moderada","region":"VI"},"geometry":{"type":"Point","coordinates":[-70.34,-34.817]}},
{"type":"Feature","properties":{"numero":22.0,"volcan":"Planchón-Peteroa","long":-70.574,"lat":-35.241,"categoria":"Alta","region":"VII"},"geometry":{"type":"Point","coordinates":[-70.574,-35.241]}},
{"type":"Feature","properties":{"numero":5.0,"volcan":"Cerro Azul-Quizapu","long":-70.759,"lat":-35.654,"categoria":"Muy Alta","region":"VII"},"geometry":{"type":"Point","coordinates":[-70.759,-35.654]}},
{"type":"Feature","properties":{"numero":55.0,"volcan":"San Pedro-Pellado","long":-70.855,"lat":-35.992,"categoria":"Baja","region":"VII"},"geometry":{"type":"Point","coordinates":[-70.855,-35.992]}},
{"type":"Feature","properties":{"numero":23.0,"volcan":"Laguna del Maule","long":-70.507,"lat":-36.058,"categoria":"Alta","region":"VII"},"geometry":{"type":"Point","coordinates":[-70.507,-36.058]}},
{"type":"Feature","properties":{"numero":56.0,"volcan":"Nevado de Longaví","long":-71.164,"lat":-36.199,"categoria":"Baja","region":"VII"},"geometry":{"type":"Point","coordinates":[-71.164,-36.199]}},
{"type":"Feature","properties":{"numero":0.0,"volcan":"Loma Blanca","long":-71.011,"lat":-36.289,"categoria":"Sin ranking","region":"VII"},"geometry":{"type":"Point","coordinates":[-71.011,-36.289]}},
{"type":"Feature","properties":{"numero":37.0,"volcan":"Tolhuaca","long":-71.646,"lat":-38.314,"categoria":"Moderada","region":"IX"},"geometry":{"type":"Point","coordinates":[-71.646,-38.314]}},
{"type":"Feature","properties":{"numero":21.0,"volcan":"Sollipulli","long":-71.519,"lat":-38.977,"categoria":"Alta","region":"IX"},"geometry":{"type":"Point","coordinates":[-71.519,-38.977]}},
{"type":"Feature","properties":{"numero":43.0,"volcan":"Caburgua","long":-71.83,"lat":-39.2,"categoria":"Moderada","region":"IX"},"geometry":{"type":"Point","coordinates":[-71.83,-39.2]}},
{"type":"Feature","properties":{"numero":4.0,"volcan":"Puyehue-Cordón Caulle","long":-72.112,"lat":-40.585,"categoria":"Muy Alta","region":"X"},"geometry":{"type":"Point","coordinates":[-72.112,-40.585]}},
{"type":"Feature","properties":{"numero":8.0,"volcan":"Osorno","long":-72.499,"lat":-41.102,"categoria":"Muy Alta","region":"X"},"geometry":{"type":"Point","coordinates":[-72.499,-41.102]}},
{"type":"Feature","properties":{"numero":2.0,"volcan":"Calbuco","long":-72.614,"lat":-41.329,"categoria":"Muy Alta","region":"X"},"geometry":{"type":"Point","coordinates":[-72.614,-41.329]}},
{"type":"Feature","properties":{"numero":20.0,"volcan":"Yate","long":-72.4,"lat":-41.759,"categoria":"Alta","region":"X"},"geometry":{"type":"Point","coordinates":[-72.4,-41.759]}},
{"type":"Feature","properties":{"numero":47.0,"volcan":"Huequi","long":-72.579,"lat":-42.379,"categoria":"Moderada","region":"X"},"geometry":{"type":"Point","coordinates":[-72.579,-42.379]}},
{"type":"Feature","properties":{"numero":7.0,"volcan":"Chaitén","long":-72.65,"lat":-42.837,"categoria":"Muy Alta","region":"X"},"geometry":{"type":"Point","coordinates":[-72.65,-42.837]}},
{"type":"Feature","properties":{"numero":38.0,"volcan":"Yanteles","long":-72.814,"lat":-43.5,"categoria":"Moderada","region":"X"},"geometry":{"type":"Point","coordinates":[-72.814,-43.5]}},
{"type":"Feature","properties":{"numero":59.0,"volcan":"Puyuhuapi","long":-72.57291288,"lat":-44.31121769,"categoria":"Baja","region":"XI"},"geometry":{"type":"Point","coordinates":[-72.57291,-44.31122]}},
{"type":"Feature","properties":{"numero":14.0,"volcan":"Láscar","long":-67.728,"lat":-23.365,"categoria":"Muy Alta","region":"II"},"geometry":{"type":"Point","coordinates":[-67.728,-23.365]}},
{"type":"Feature","properties":{"numero":5.0,"volcan":"Descabezado Grande","long":-70.751,"lat":-35.586,"categoria":"Muy Alta","region":"VII"},"geometry":{"type":"Point","coordinates":[-70.751,-35.586]}},
{"type":"Feature","properties":{"numero":43.0,"volcan":"Huelemolle","long":-71.80460405,"lat":-39.2974597,"categoria":"Moderada","region":"IX"},"geometry":{"type":"Point","coordinates":[-71.8046,-39.29746]}},
{"type":"Feature","properties":{"numero":64.0,"volcan":"Llizán","long":-71.75571515,"lat":-39.63173009,"categoria":"Baja","region":"XIV"},"geometry":{"type":"Point","coordinates":[-71.75572,-39.63173]}},
{"type":"Feature","properties":{"numero":27.0,"volcan":"Lanín","long":-71.501,"lat":-39.639,"categoria":"Alta","region":"XIV"},"geometry":{"type":"Point","coordinates":[-71.501,-39.639]}},
{"type":"Feature","properties":{"numero":51.0,"volcan":"Fui","long":-71.928,"lat":-39.901,"categoria":"Moderada","region":"XIV"},"geometry":{"type":"Point","coordinates":[-71.928,-39.901]}},
{"type":"Feature","properties":{"numero":9.0,"volcan":"Mocho-Choshuenco","long":-72.03,"lat":-39.93,"categoria":"Muy Alta","region":"X"},"geometry":{"type":"Point","coordinates":[-72.03,-39.93]}},
{"type":"Feature","properties":{"numero":6.0,"volcan":"Carrán-Los Venados","long":-72.073,"lat":-40.366,"categoria":"Muy Alta","region":"X"},"geometry":{"type":"Point","coordinates":[-72.073,-40.366]}},
{"type":"Feature","properties":{"numero":16.0,"volcan":"Antillanca","long":-72.155,"lat":-40.776,"categoria":"Alta","region":"X"},"geometry":{"type":"Point","coordinates":[-72.155,-40.776]}},
{"type":"Feature","properties":{"numero":24.0,"volcan":"Puntiagudo-Cordón Cenizos","long":-72.269,"lat":-40.973,"categoria":"Alta","region":"X"},"geometry":{"type":"Point","coordinates":[-72.269,-40.973]}},
{"type":"Feature","properties":{"numero":33.0,"volcan":"Cayutúe","long":-72.28,"lat":-41.253,"categoria":"Moderada","region":"X"},"geometry":{"type":"Point","coordinates":[-72.28,-41.253]}},
{"type":"Feature","properties":{"numero":29.0,"volcan":"Hornopirén","long":-72.431,"lat":-41.876,"categoria":"Alta","region":"X"},"geometry":{"type":"Point","coordinates":[-72.431,-41.876]}},
{"type":"Feature","properties":{"numero":30.0,"volcan":"Apagado (Hualaihué)","long":-72.589,"lat":-41.884,"categoria":"Alta","region":"X"},"geometry":{"type":"Point","coordinates":[-72.589,-41.884]}},
{"type":"Feature","properties":{"numero":19.0,"volcan":"Michinmahuida","long":-72.445,"lat":-42.798,"categoria":"Alta","region":"X"},"geometry":{"type":"Point","coordinates":[-72.445,-42.798]}},
{"type":"Feature","properties":{"numero":65.0,"volcan":"Palvitad","long":-72.73866924,"lat":-43.10329332,"categoria":"Baja","region":"X"},"geometry":{"type":"Point","coordinates":[-72.73867,-43.10329]}},
{"type":"Feature","properties":{"numero":57.0,"volcan":"Corcovado","long":-72.794,"lat":-43.194,"categoria":"Baja","region":"X"},"geometry":{"type":"Point","coordinates":[-72.794,-43.194]}},
{"type":"Feature","properties":{"numero":44.0,"volcan":"Alto Palena","long":-72.35,"lat":-43.65,"categoria":"Moderada","region":"X"},"geometry":{"type":"Point","coordinates":[-72.35,-43.65]}},
{"type":"Feature","properties":{"numero":28.0,"volcan":"Melimoyu","long":-72.868,"lat":-44.072,"categoria":"Alta","region":"XI"},"geometry":{"type":"Point","coordinates":[-72.868,-44.072]}},
{"type":"Feature","properties":{"numero":35.0,"volcan":"Mentolat","long":-73.079,"lat":-44.695,"categoria":"Moderada","region":"XI"},"geometry":{"type":"Point","coordinates":[-73.079,-44.695]}},
{"type":"Feature","properties":{"numero":63.0,"volcan":"Cay","long":-72.988,"lat":-45.058,"categoria":"Baja","region":"XI"},"geometry":{"type":"Point","coordinates":[-72.988,-45.058]}},
{"type":"Feature","properties":{"numero":39.0,"volcan":"Macá","long":-73.164,"lat":-45.104,"categoria":"Moderada","region":"XI"},"geometry":{"type":"Point","coordinates":[-73.164,-45.104]}},
{"type":"Feature","properties":{"numero":12.0,"volcan":"Hudson","long":-72.97,"lat":-45.9,"categoria":"Muy Alta","region":"XII"},"geometry":{"type":"Point","coordinates":[-72.97,-45.9]}},
{"type":"Feature","properties":{"numero":54.0,"volcan":"Lautaro","long":-73.506,"lat":-49.02,"categoria":"Moderada","region":"XII"},"geometry":{"type":"Point","coordinates":[-73.506,-49.02]}},
{"type":"Feature","properties":{"numero":34.0,"volcan":"Reclus","long":-73.5815299,"lat":-50.93647469,"categoria":"Moderada","region":"XII"},"geometry":{"type":"Point","coordinates":[-73.58153,-50.93647]}},
{"type":"Feature","properties":{"numero":67.0,"volcan":"Pali-Aike","long":-70.1,"lat":-52.0,"categoria":"Baja","region":"XII"},"geometry":{"type":"Point","coordinates":[-70.1,-52.0]}},
{"type":"Feature","properties":{"numero":32.0,"volcan":"Monte Burney","long":-73.379,"lat":-52.326,"categoria":"Moderada","region":"XII"},"geometry":{"type":"Point","coordinates":[-73.379,-52.326]}},
{"type":"Feature","properties":{"numero":74.0,"volcan":"Fueguino (Cook)","long":-70.24834956,"lat":-54.95817126,"categoria":"Muy Baja","region":"XII"},"geometry":{"type":"Point","coordinates":[-70.24835,-54.95817]}},
{"type":"Feature","properties":{"numero":87.0,"volcan":"Orca","long":-58.38901294,"lat":-62.4,"categoria":"Muy Baja","region":"XII"},"geometry":{"type":"Point","coordinates":[-58.38901,-62.4]}},
{"type":"Feature","properties":{"numero":77.0,"volcan":"Aguilucho","long":-68.202,"lat":-21.829,"categoria":"Muy Baja","region":"II"},"geometry":{"type":"Point","coordinates":[-68.202,-21.829]}},
{"type":"Feature","properties":{"numero":0.0,"volcan":"Caichinque","long":-67.73897773,"lat":-23.94884178,"categoria":"Sin ranking","region":"II"},"geometry":{"type":"Point","coordinates":[-67.73898,-23.94884]}},
{"type":"Feature","properties":{"numero":85.0,"volcan":"Cerro Bayo","long":-68.588,"lat":-25.414,"categoria":"Muy Baja","region":"II"},"geometry":{"type":"Point","coordinates":[-68.588,-25.414]}},
{"type":"Feature","properties":{"numero":79.0,"volcan":"Nevado Tres Cruces","long":-68.778,"lat":-27.098,"categoria":"Muy Baja","region":"III"},"geometry":{"type":"Point","coordinates":[-68.778,-27.098]}},
{"type":"Feature","properties":{"numero":53.0,"volcan":"Isla de Pascua","long":-109.367,"lat":-27.114,"categoria":"Moderada","region":"V"},"geometry":{"type":"Point","coordinates":[-109.367,-27.114]}},
{"type":"Feature","properties":{"numero":5.0,"volcan":"Descabezado Chico","long":-70.62,"lat":-35.515,"categoria":"Muy Alta","region":"VII"},"geometry":{"type":"Point","coordinates":[-70.62,-35.515]}},
{"type":"Feature","properties":{"numero":43.0,"volcan":"Relicura","long":-71.66926755,"lat":-39.2628575,"categoria":"Moderada","region":"IX"},"geometry":{"type":"Point","coordinates":[-71.66927,-39.26286]}},
{"type":"Feature","properties":{"numero":58.0,"volcan":"Barranco Colorado","long":-72.482,"lat":-42.399,"categoria":"Baja","region":"X"},"geometry":{"type":"Point","coordinates":[-72.482,-42.399]}},
{"type":"Feature","properties":{"numero":40.0,"volcan":"Grupo Aysén","long":-73.076,"lat":-45.371,"categoria":"Moderada","region":"XI"},"geometry":{"type":"Point","coordinates":[-73.076,-45.371]}},
{"type":"Feature","properties":{"numero":73.0,"volcan":"Aguilera","long":-73.78810776,"lat":-50.40243364,"categoria":"Muy Baja","region":"XII"},"geometry":{"type":"Point","coordinates":[-73.78811,-50.40243]}},
{"type":"Feature","properties":{"numero":76.0,"volcan":"Isla Pingüino","long":-57.91901294,"lat":-62.1,"categoria":"Muy Baja","region":"XII"},"geometry":{"type":"Point","coordinates":[-57.91901,-62.1]}},
{"type":"Feature","properties":{"numero":46.0,"volcan":"Isla Decepción","long":-60.637,"lat":-62.959,"categoria":"Moderada","region":"XII"},"geometry":{"type":"Point","coordinates":[-60.637,-62.959]}},
{"type":"Feature","properties":{"numero":78.0,"volcan":"Isla Paulet","long":-55.76901294,"lat":-63.579,"categoria":"Muy Baja","region":"XII"},"geometry":{"type":"Point","coordinates":[-55.76901,-63.579]}}
]
}
