{
"type": "FeatureCollection",
"name": "Puntos_Encuentro_Volcánico",
"crs": { "type": "name", "properties": { "name": "urn:ogc:def:crs:OGC:1.3:CRS84" } },
"xy_coordinate_resolution": 1e-05,
"features": [
{"type":"Feature","properties":{"id":1,"nombre":"Sede Escorial","tipo":"PET","volcan":"Llaima"},"geometry":{"type":"Point","coordinates":[-71.65916,-38.81115]}},
{"type":"Feature","properties":{"id":2,"nombre":"Villa Mirador","tipo":"PET","volcan":"Llaima"},"geometry":{"type":"Point","coordinates":[-71.69174,-38.84722]}},
{"type":"Feature","properties":{"id":3,"nombre":"Sede Meli","tipo":"PET","volcan":"Llaima"},"geometry":{"type":"Point","coordinates":[-71.6774,-38.83828]}},
{"type":"Feature","properties":{"id":4,"nombre":"Sede Huilipán","tipo":"PET","volcan":"Llaima"},"geometry":{"type":"Point","coordinates":[-71.75394,-38.88406]}},
{"type":"Feature","properties":{"id":5,"nombre":"Posta La Tepa y Escuela José Chaín","tipo":"PET","volcan":"Llaima"},"geometry":{"type":"Point","coordinates":[-71.82471,-38.50802]}},
{"type":"Feature","properties":{"id":6,"nombre":"Cruce Piñones","tipo":"PET","volcan":"Llaima"},"geometry":{"type":"Point","coordinates":[-71.83119,-38.52679]}},
{"type":"Feature","properties":{"id":7,"nombre":"Estación Queule (Nueva ubicación)","tipo":"PET","volcan":"Llaima"},"geometry":{"type":"Point","coordinates":[-71.81056,-38.54575]}},
{"type":"Feature","properties":{"id":8,"nombre":"Familia Sra. Liliana Soto","tipo":"PET","volcan":"Llaima"},"geometry":{"type":"Point","coordinates":[-71.82946,-38.5579]}},
{"type":"Feature","properties":{"id":9,"nombre":"El Colorado","tipo":"PET","volcan":"Llaima"},"geometry":{"type":"Point","coordinates":[-71.78812,-38.56315]}},
{"type":"Feature","properties":{"id":10,"nombre":"Casa del Sr. Adiel Burgos","tipo":"PET","volcan":"Llaima"},"geometry":{"type":"Point","coordinates":[-71.79263,-38.58775]}},
{"type":"Feature","properties":{"id":11,"nombre":"Familia Vidal (Nueva ubicación)","tipo":"PET","volcan":"Llaima"},"geometry":{"type":"Point","coordinates":[-71.80168,-38.59003]}},
{"type":"Feature","properties":{"id":12,"nombre":"Borde Río Calbuco (Nueva ubicación)","tipo":"PET","volcan":"Llaima"},"geometry":{"type":"Point","coordinates":[-71.91073,-38.72246]}},
{"type":"Feature","properties":{"id":13,"nombre":"Fundo Lleuque","tipo":"PET","volcan":"Llaima"},"geometry":{"type":"Point","coordinates":[-71.92379,-38.73497]}},
{"type":"Feature","properties":{"id":14,"nombre":"Escuela E-545","tipo":"PET","volcan":"Llaima"},"geometry":{"type":"Point","coordinates":[-72.00345,-38.68324]}},
{"type":"Feature","properties":{"id":15,"nombre":"Escuela Osvaldo Vega","tipo":"PET","volcan":"Llaima"},"geometry":{"type":"Point","coordinates":[-72.00362,-38.68359]}},
{"type":"Feature","properties":{"id":16,"nombre":"Fundo Laguna Quepe (Nueva ubicación)","tipo":"PET","volcan":"Llaima"},"geometry":{"type":"Point","coordinates":[-71.84853,-38.64586]}},
{"type":"Feature","properties":{"id":17,"nombre":"Plaza Villa García","tipo":"PET","volcan":"Llaima"},"geometry":{"type":"Point","coordinates":[-71.92112,-38.90005]}},
{"type":"Feature","properties":{"id":18,"nombre":"Cunco","tipo":"PE","volcan":"Llaima"},"geometry":{"type":"Point","coordinates":[-72.03042,-38.92843]}},
{"type":"Feature","properties":{"id":19,"nombre":"Curacautín","tipo":"PE","volcan":"Llaima"},"geometry":{"type":"Point","coordinates":[-71.88836,-38.43733]}},
{"type":"Feature","properties":{"id":22,"nombre":"Cementerio","tipo":"PET","volcan":"Villarrica"},"geometry":{"type":"Point","coordinates":[-72.16616,-39.48775]}},
{"type":"Feature","properties":{"id":23,"nombre":"Escuela Alihuén","tipo":"PET","volcan":"Villarrica"},"geometry":{"type":"Point","coordinates":[-72.09267,-39.48598]}},
{"type":"Feature","properties":{"id":24,"nombre":"Voipir Seco - Predio Kolping","tipo":"PET","volcan":"Villarrica"},"geometry":{"type":"Point","coordinates":[-72.09428,-39.39525]}},
{"type":"Feature","properties":{"id":25,"nombre":"Voipir Seco - Predio Hugo Vera","tipo":"PET","volcan":"Villarrica"},"geometry":{"type":"Point","coordinates":[-72.05803,-39.417]}},
{"type":"Feature","properties":{"id":26,"nombre":"Loncotraro - Helipuerto Hotel Park Lake","tipo":"PET","volcan":"Villarrica"},"geometry":{"type":"Point","coordinates":[-72.08906,-39.30231]}},
{"type":"Feature","properties":{"id":27,"nombre":"Los Riscos","tipo":"PET","volcan":"Villarrica"},"geometry":{"type":"Point","coordinates":[-72.03336,-39.31758]}},
{"type":"Feature","properties":{"id":28,"nombre":"Candelaria","tipo":"PET","volcan":"Villarrica"},"geometry":{"type":"Point","coordinates":[-72.00944,-39.32156]}},
{"type":"Feature","properties":{"id":29,"nombre":"Escuela Quelhue - Quelhue Alto","tipo":"PET","volcan":"Villarrica"},"geometry":{"type":"Point","coordinates":[-71.92039,-39.26139]}},
{"type":"Feature","properties":{"id":30,"nombre":"Península Pucón","tipo":"PET","volcan":"Villarrica"},"geometry":{"type":"Point","coordinates":[-71.98936,-39.27203]}},
{"type":"Feature","properties":{"id":31,"nombre":"Los Calabozos","tipo":"PET","volcan":"Villarrica"},"geometry":{"type":"Point","coordinates":[-71.93882,-39.30064]}},
{"type":"Feature","properties":{"id":32,"nombre":"Huincacara Sur - Predio Juana Montecinos","tipo":"PET","volcan":"Villarrica"},"geometry":{"type":"Point","coordinates":[-72.15539,-39.36766]}},
{"type":"Feature","properties":{"id":34,"nombre":"Challupen Bajo - Sede Ambrosio Punolef","tipo":"PET","volcan":"Villarrica"},"geometry":{"type":"Point","coordinates":[-72.10325,-39.49218]}},
{"type":"Feature","properties":{"id":35,"nombre":"Huincacara Norte - Cerro El Pirao","tipo":"PET","volcan":"Villarrica"},"geometry":{"type":"Point","coordinates":[-72.07546,-39.37087]}},
{"type":"Feature","properties":{"id":43,"nombre":"Shangri-La Norte","tipo":"PET","volcan":"Nevados de Chillán"},"geometry":{"type":"Point","coordinates":[-71.49524,-36.90281]}},
{"type":"Feature","properties":{"id":44,"nombre":"Ex-Complejo Copelec","tipo":"PET","volcan":"Nevados de Chillán"},"geometry":{"type":"Point","coordinates":[-71.53935,-36.90435]}},
{"type":"Feature","properties":{"id":45,"nombre":"Est.Complejo Entre Roc*","tipo":"PET","volcan":"Nevados de Chillán"},"geometry":{"type":"Point","coordinates":[-71.50842,-36.91524]}},
{"type":"Feature","properties":{"id":46,"nombre":"Tenencia Las Trancas","tipo":"PET","volcan":"Nevados de Chillán"},"geometry":{"type":"Point","coordinates":[-71.48028,-36.91078]}},
{"type":"Feature","properties":{"id":47,"nombre":"Cueva Los Pincheiras","tipo":"PET","volcan":"Nevados de Chillán"},"geometry":{"type":"Point","coordinates":[-71.55144,-36.89619]}},
{"type":"Feature","properties":{"id":48,"nombre":"Complejo Valle Hermoso","tipo":"PET","volcan":"Nevados de Chillán"},"geometry":{"type":"Point","coordinates":[-71.41835,-36.91635]}},
{"type":"Feature","properties":{"id":49,"nombre":"Los Cipreses","tipo":"PET","volcan":"Nevados de Chillán"},"geometry":{"type":"Point","coordinates":[-71.56413,-36.93108]}},
{"type":"Feature","properties":{"id":50,"nombre":"Los Pellines","tipo":"PET","volcan":"Nevados de Chillán"},"geometry":{"type":"Point","coordinates":[-71.61528,-36.82631]}},
{"type":"Feature","properties":{"id":51,"nombre":"Las Veguillas","tipo":"PET","volcan":"Nevados de Chillán"},"geometry":{"type":"Point","coordinates":[-71.38544,-36.65766]}},
{"type":"Feature","properties":{"id":52,"nombre":"Los Sauces","tipo":"PET","volcan":"Nevados de Chillán"},"geometry":{"type":"Point","coordinates":[-71.27094,-36.65444]}},
{"type":"Feature","properties":{"id":53,"nombre":"El Caracol","tipo":"PET","volcan":"Nevados de Chillán"},"geometry":{"type":"Point","coordinates":[-71.38939,-36.64912]}},
{"type":"Feature","properties":{"id":54,"nombre":"Los Puquios","tipo":"PET","volcan":"Nevados de Chillán"},"geometry":{"type":"Point","coordinates":[-71.44452,-36.61505]}},
{"type":"Feature","properties":{"id":55,"nombre":"Carabineros El Roble","tipo":"PET","volcan":"Nevados de Chillán"},"geometry":{"type":"Point","coordinates":[-71.25305,-36.74786]}},
{"type":"Feature","properties":{"id":56,"nombre":"El Chacayal","tipo":"PET","volcan":"Nevados de Chillán"},"geometry":{"type":"Point","coordinates":[-71.28648,-36.71197]}},
{"type":"Feature","properties":{"id":57,"nombre":"Putabla Predio Renato Vallejos","tipo":"PET","volcan":"Villarrica"},"geometry":{"type":"Point","coordinates":[-72.16373,-39.48172]}},
{"type":"Feature","properties":{"id":58,"nombre":"Ensenada - Cabañas Norma Punulef","tipo":"PET","volcan":"Villarrica"},"geometry":{"type":"Point","coordinates":[-72.13737,-39.48302]}},
{"type":"Feature","properties":{"id":59,"nombre":null,"tipo":"PET","volcan":"Plachón Peteroa"},"geometry":{"type":"Point","coordinates":[-70.81474,-35.00097]}},
{"type":"Feature","properties":{"id":60,"nombre":null,"tipo":"PET","volcan":"Plachón Peteroa"},"geometry":{"type":"Point","coordinates":[-70.80938,-35.00089]}},
{"type":"Feature","properties":{"id":61,"nombre":"Predio Jorge Matzner","tipo":"PET","volcan":"Osorno"},"geometry":{"type":"Point","coordinates":[-72.64556,-41.07583]}},
{"type":"Feature","properties":{"id":62,"nombre":"La Picada","tipo":"PET","volcan":"Osorno"},"geometry":{"type":"Point","coordinates":[-72.56667,-41.00861]}},
{"type":"Feature","properties":{"id":63,"nombre":"Río Blanco Coihueco","tipo":"PET","volcan":"Osorno"},"geometry":{"type":"Point","coordinates":[-72.58722,-40.9725]}},
{"type":"Feature","properties":{"id":64,"nombre":"Aguas Buenas","tipo":"PET","volcan":"Osorno"},"geometry":{"type":"Point","coordinates":[-72.60017,-40.97]}},
{"type":"Feature","properties":{"id":65,"nombre":"Kloker","tipo":"PET","volcan":"Osorno"},"geometry":{"type":"Point","coordinates":[-72.65056,-41.04583]}},
{"type":"Feature","properties":{"id":67,"nombre":"Carabineros Trapa Trapa","tipo":"PET","volcan":"Copahue"},"geometry":{"type":"Point","coordinates":[-71.22098,-37.73327]}},
{"type":"Feature","properties":{"id":68,"nombre":"Carabineros Guallalí","tipo":"PET","volcan":"Copahue"},"geometry":{"type":"Point","coordinates":[-71.27583,-38.04282]}},
{"type":"Feature","properties":{"id":69,"nombre":"Costa Ralco","tipo":"PET","volcan":"Copahue"},"geometry":{"type":"Point","coordinates":[-71.30665,-37.99131]}},
{"type":"Feature","properties":{"id":70,"nombre":"Lonco Traro","tipo":"PET","volcan":"Copahue"},"geometry":{"type":"Point","coordinates":[-71.26794,-37.7259]}},
{"type":"Feature","properties":{"id":71,"nombre":"Posta Butalelbun","tipo":"PET","volcan":"Copahue"},"geometry":{"type":"Point","coordinates":[-71.21508,-37.75273]}},
{"type":"Feature","properties":{"id":72,"nombre":"Trapa Trapa","tipo":"PET","volcan":"Copahue"},"geometry":{"type":"Point","coordinates":[-71.2462,-37.71575]}},
{"type":"Feature","properties":{"id":73,"nombre":"Antena","tipo":"PET","volcan":"Copahue"},"geometry":{"type":"Point","coordinates":[-71.22507,-37.75715]}},
{"type":"Feature","properties":{"id":79,"nombre":null,"tipo":"PET","volcan":"Chaitén"},"geometry":{"type":"Point","coordinates":[-72.71211,-42.91175]}},
{"type":"Feature","properties":{"id":80,"nombre":null,"tipo":"PET","volcan":"Chaitén"},"geometry":{"type":"Point","coordinates":[-72.70012,-42.92475]}},
{"type":"Feature","properties":{"id":81,"nombre":"PET 1","tipo":"PET","volcan":"Mocho Choshuenco"},"geometry":{"type":"Point","coordinates":[-72.08396,-39.83807]}},
{"type":"Feature","properties":{"id":82,"nombre":"PET 2","tipo":"PET","volcan":"Mocho Choshuenco"},"geometry":{"type":"Point","coordinates":[-72.00467,-39.82997]}},
{"type":"Feature","properties":{"id":83,"nombre":"PET 3","tipo":"PET","volcan":"Mocho Choshuenco"},"geometry":{"type":"Point","coordinates":[-72.02466,-39.83825]}},
{"type":"Feature","properties":{"id":84,"nombre":"PET 4","tipo":"PET","volcan":"Mocho Choshuenco"},"geometry":{"type":"Point","coordinates":[-72.08764,-39.8021]}},
{"type":"Feature","properties":{"id":85,"nombre":"PET 5","tipo":"PET","volcan":"Mocho Choshuenco"},"geometry":{"type":"Point","coordinates":[-72.06595,-39.81641]}},
{"type":"Feature","properties":{"id":86,"nombre":"Escuela Nochaco","tipo":"PE","volcan":"Osorno"},"geometry":{"type":"Point","coordinates":[-72.88495,-40.89101]}},
{"type":"Feature","properties":{"id":87,"nombre":"Villa Ralco","tipo":"PE","volcan":"Copahue"},"geometry":{"type":"Point","coordinates":[-71.63815,-37.87958]}},
{"type":"Feature","properties":{"id":88,"nombre":"Puente El Negro","tipo":"PE","volcan":"Chaitén"},"geometry":{"type":"Point","coordinates":[-72.62116,-42.96197]}},
{"type":"Feature","properties":{"id":89,"nombre":"Santa Bárbara","tipo":"PE","volcan":"Chaitén"},"geometry":{"type":"Point","coordinates":[-72.7978,-42.84968]}},
{"type":"Feature","properties":{"id":90,"nombre":"El Tepú","tipo":"PET","volcan":"Osorno"},"geometry":{"type":"Point","coordinates":[-72.60274,-41.23342]}},
{"type":"Feature","properties":{"id":91,"nombre":"Villa Los Alamos","tipo":"PET","volcan":"Osorno"},"geometry":{"type":"Point","coordinates":[-72.58239,-41.22982]}},
{"type":"Feature","properties":{"id":92,"nombre":"Cruce Navarro","tipo":"PET","volcan":"Osorno"},"geometry":{"type":"Point","coordinates":[-72.57131,-41.22713]}},
{"type":"Feature","properties":{"id":93,"nombre":"Villa Los Volcanes","tipo":"PET","volcan":"Osorno"},"geometry":{"type":"Point","coordinates":[-72.56954,-41.22671]}},
{"type":"Feature","properties":{"id":94,"nombre":"Villa Elisa","tipo":"PET","volcan":"Osorno"},"geometry":{"type":"Point","coordinates":[-72.56549,-41.2257]}},
{"type":"Feature","properties":{"id":95,"nombre":"El Zorro","tipo":"PET","volcan":"Osorno"},"geometry":{"type":"Point","coordinates":[-72.55488,-41.2217]}},
{"type":"Feature","properties":{"id":96,"nombre":"Escuela Epson","tipo":"PET","volcan":"Osorno"},"geometry":{"type":"Point","coordinates":[-72.53917,-41.20848]}},
{"type":"Feature","properties":{"id":97,"nombre":"Los Arrayanes","tipo":"PET","volcan":"Osorno"},"geometry":{"type":"Point","coordinates":[-72.5084,-41.2191]}},
{"type":"Feature","properties":{"id":98,"nombre":"Yerbas Buenas","tipo":"PET","volcan":"Osorno"},"geometry":{"type":"Point","coordinates":[-72.58669,-41.14375]}},
{"type":"Feature","properties":{"id":99,"nombre":"Petrohue","tipo":"PET","volcan":"Osorno"},"geometry":{"type":"Point","coordinates":[-72.40078,-41.13853]}},
{"type":"Feature","properties":{"id":100,"nombre":"Saltos Del Petrohue","tipo":"PET","volcan":"Osorno"},"geometry":{"type":"Point","coordinates":[-72.45051,-41.17249]}},
{"type":"Feature","properties":{"id":101,"nombre":"Escuela Rural Ella Minte de Roth","tipo":"PET","volcan":"Osorno"},"geometry":{"type":"Point","coordinates":[-72.01848,-41.08516]}},
{"type":"Feature","properties":{"id":112,"nombre":"Estadio Antuco","tipo":"PE","volcan":"Antuco"},"geometry":{"type":"Point","coordinates":[-71.67204,-37.33149]}},
{"type":"Feature","properties":{"id":113,"nombre":"Oficina CONAF","tipo":"PET","volcan":"Antuco"},"geometry":{"type":"Point","coordinates":[-71.40903,-37.39351]}},
{"type":"Feature","properties":{"id":114,"nombre":"Villa Peluca","tipo":"PET","volcan":"Antuco"},"geometry":{"type":"Point","coordinates":[-71.61611,-37.3379]}},
{"type":"Feature","properties":{"id":115,"nombre":"Campamento Viejo","tipo":"PET","volcan":"Antuco"},"geometry":{"type":"Point","coordinates":[-71.4738,-37.3873]}},
{"type":"Feature","properties":{"id":116,"nombre":"Centro Turístico Serv. Salud Biob","tipo":"PET","volcan":"Antuco"},"geometry":{"type":"Point","coordinates":[-71.49786,-37.37147]}},
{"type":"Feature","properties":{"id":117,"nombre":"Villa Los Canelos","tipo":"PET","volcan":"Antuco"},"geometry":{"type":"Point","coordinates":[-71.53454,-37.35987]}},
{"type":"Feature","properties":{"id":118,"nombre":"PE Villa Las Rosas","tipo":"PE","volcan":"Antuco"},"geometry":{"type":"Point","coordinates":[-71.65068,-37.33309]}},
{"type":"Feature","properties":{"id":119,"nombre":"Callejón Los Aromos","tipo":"PE","volcan":"Antuco"},"geometry":{"type":"Point","coordinates":[-71.64078,-37.33432]}},
{"type":"Feature","properties":{"id":120,"nombre":"Sede JJVV Alto Antuco","tipo":"PE","volcan":"Antuco"},"geometry":{"type":"Point","coordinates":[-71.67215,-37.34284]}},
{"type":"Feature","properties":{"id":121,"nombre":"El Manzano - Sector Los Castillo","tipo":"PET","volcan":"Antuco"},"geometry":{"type":"Point","coordinates":[-71.51282,-37.36558]}},
{"type":"Feature","properties":{"id":155,"nombre":"Pino Huacho Predio Pedro Vásquez","tipo":"PET","volcan":"Villarrica"},"geometry":{"type":"Point","coordinates":[-72.04736,-39.4447]}},
{"type":"Feature","properties":{"id":156,"nombre":"Escuela Estadio Cudico","tipo":"PET","volcan":"Villarrica"},"geometry":{"type":"Point","coordinates":[-72.11927,-39.43882]}},
{"type":"Feature","properties":{"id":157,"nombre":"Hincacara Sur Iglesia Pentecostal Calfutúe","tipo":"PET","volcan":"Villarrica"},"geometry":{"type":"Point","coordinates":[-72.20339,-39.36313]}},
{"type":"Feature","properties":{"id":158,"nombre":"Conquil - Predio Julio Bustos","tipo":"PET","volcan":"Villarrica"},"geometry":{"type":"Point","coordinates":[-72.15127,-39.34435]}},
{"type":"Feature","properties":{"id":159,"nombre":"Estrella Blanca Predio Carmen San Martín","tipo":"PET","volcan":"Villarrica"},"geometry":{"type":"Point","coordinates":[-72.04281,-39.35412]}},
{"type":"Feature","properties":{"id":160,"nombre":"Loncotraro Alto - Country Pucón","tipo":"PET","volcan":"Villarrica"},"geometry":{"type":"Point","coordinates":[-72.04837,-39.34186]}},
{"type":"Feature","properties":{"id":161,"nombre":"Piedra Amarilla","tipo":"PET","volcan":"Villarrica"},"geometry":{"type":"Point","coordinates":[-72.13364,-39.30123]}},
{"type":"Feature","properties":{"id":162,"nombre":"Club de Huasos","tipo":"PET","volcan":"Villarrica"},"geometry":{"type":"Point","coordinates":[-71.91858,-39.30889]}},
{"type":"Feature","properties":{"id":163,"nombre":"Cerdúo 1","tipo":"PET","volcan":"Villarrica"},"geometry":{"type":"Point","coordinates":[-71.88076,-39.33116]}},
{"type":"Feature","properties":{"id":164,"nombre":"Cerdúo 2","tipo":"PET","volcan":"Villarrica"},"geometry":{"type":"Point","coordinates":[-71.89772,-39.30245]}},
{"type":"Feature","properties":{"id":166,"nombre":"Palguín","tipo":"PET","volcan":"Villarrica"},"geometry":{"type":"Point","coordinates":[-71.78312,-39.39791]}},
{"type":"Feature","properties":{"id":167,"nombre":"Mirador Camino al Volcán","tipo":"PET","volcan":"Villarrica"},"geometry":{"type":"Point","coordinates":[-71.97735,-39.35255]}},
{"type":"Feature","properties":{"id":168,"nombre":"Mirador Puente Pellaifa","tipo":"PET","volcan":"Villarrica"},"geometry":{"type":"Point","coordinates":[-72.01955,-39.58891]}},
{"type":"Feature","properties":{"id":169,"nombre":"Cerro Raucan","tipo":"PET","volcan":"Villarrica"},"geometry":{"type":"Point","coordinates":[-72.01528,-39.5539]}},
{"type":"Feature","properties":{"id":170,"nombre":"Alicia Rojas","tipo":"PET","volcan":"Villarrica"},"geometry":{"type":"Point","coordinates":[-72.00993,-39.55336]}},
{"type":"Feature","properties":{"id":172,"nombre":"Poly Pinilla","tipo":"PET","volcan":"Villarrica"},"geometry":{"type":"Point","coordinates":[-72.06361,-39.4925]}},
{"type":"Feature","properties":{"id":173,"nombre":"Cementerio Pucura","tipo":"PET","volcan":"Villarrica"},"geometry":{"type":"Point","coordinates":[-72.06192,-39.51481]}},
{"type":"Feature","properties":{"id":174,"nombre":"Agrupación de Mujeres Huincul Zomo \"Milimili\"","tipo":"PET","volcan":"Villarrica"},"geometry":{"type":"Point","coordinates":[-72.03528,-39.51167]}},
{"type":"Feature","properties":{"id":175,"nombre":"Familia Cheuquepán","tipo":"PET","volcan":"Villarrica"},"geometry":{"type":"Point","coordinates":[-72.05139,-39.52972]}},
{"type":"Feature","properties":{"id":176,"nombre":"Palo Blanco","tipo":"PET","volcan":"Villarrica"},"geometry":{"type":"Point","coordinates":[-72.06665,-39.5304]}},
{"type":"Feature","properties":{"id":177,"nombre":"Familia Lefinao","tipo":"PET","volcan":"Villarrica"},"geometry":{"type":"Point","coordinates":[-72.07639,-39.51444]}},
{"type":"Feature","properties":{"id":178,"nombre":"Río Plata","tipo":"PET","volcan":"Villarrica"},"geometry":{"type":"Point","coordinates":[-71.96042,-39.23142]}},
{"type":"Feature","properties":{"id":179,"nombre":"Termas Geométricas","tipo":"PET","volcan":"Villarrica"},"geometry":{"type":"Point","coordinates":[-71.87571,-39.50335]}},
{"type":"Feature","properties":{"id":180,"nombre":"El Cardo","tipo":"PET","volcan":"Villarrica"},"geometry":{"type":"Point","coordinates":[-71.93417,-39.5503]}},
{"type":"Feature","properties":{"id":181,"nombre":"Chépica","tipo":"PET","volcan":"Villarrica"},"geometry":{"type":"Point","coordinates":[-71.94943,-39.54479]}},
{"type":"Feature","properties":{"id":182,"nombre":"Loncotraro","tipo":"PET","volcan":"Villarrica"},"geometry":{"type":"Point","coordinates":[-72.08434,-39.30881]}},
{"type":"Feature","properties":{"id":183,"nombre":"Ñancul","tipo":"PET","volcan":"Villarrica"},"geometry":{"type":"Point","coordinates":[-72.30704,-39.28575]}},
{"type":"Feature","properties":{"id":191,"nombre":"Escuela Callaqui","tipo":"PET","volcan":"Callaqui"},"geometry":{"type":"Point","coordinates":[-71.67064,-37.85483]}},
{"type":"Feature","properties":{"id":192,"nombre":"Gimnasio Escuela E-970","tipo":"PET","volcan":"Callaqui"},"geometry":{"type":"Point","coordinates":[-71.63707,-37.87928]}},
{"type":"Feature","properties":{"id":193,"nombre":"Escuela Quepuca-Ralco","tipo":"PET","volcan":"Callaqui"},"geometry":{"type":"Point","coordinates":[-71.47117,-38.03823]}},
{"type":"Feature","properties":{"id":194,"nombre":"La Cruz","tipo":"PET","volcan":"Callaqui"},"geometry":{"type":"Point","coordinates":[-71.47109,-38.04153]}},
{"type":"Feature","properties":{"id":196,"nombre":"Confluencia","tipo":"PET","volcan":"Callaqui"},"geometry":{"type":"Point","coordinates":[-71.32081,-37.98533]}},
{"type":"Feature","properties":{"id":197,"nombre":"Río Ralco Oeste","tipo":"PET","volcan":"Callaqui"},"geometry":{"type":"Point","coordinates":[-71.32173,-38.01464]}},
{"type":"Feature","properties":{"id":198,"nombre":"Cancha El Barco","tipo":"PET","volcan":"Copahue Callaqui"},"geometry":{"type":"Point","coordinates":[-71.30539,-38.01846]}},
{"type":"Feature","properties":{"id":199,"nombre":"Guallalí","tipo":"PET","volcan":"Callaqui"},"geometry":{"type":"Point","coordinates":[-71.33584,-38.03745]}},
{"type":"Feature","properties":{"id":200,"nombre":"Escuela de Chenqueco","tipo":"PET","volcan":"Copahue Callaqui"},"geometry":{"type":"Point","coordinates":[-71.3542,-38.06496]}},
{"type":"Feature","properties":{"id":201,"nombre":"Centro de Eventos","tipo":"PE","volcan":"Callaqui"},"geometry":{"type":"Point","coordinates":[-72.02824,-37.66929]}},
{"type":"Feature","properties":{"id":215,"nombre":"Posta de Salud Rupumeica Bajo","tipo":"PET","volcan":"Cordón Caulle"},"geometry":{"type":"Point","coordinates":[-71.96139,-40.31942]}},
{"type":"Feature","properties":{"id":216,"nombre":"Posta Rupumeica Alto","tipo":"PET","volcan":"Cordón Caulle"},"geometry":{"type":"Point","coordinates":[-71.98633,-40.35962]}},
{"type":"Feature","properties":{"id":220,"nombre":"Escuela Pisu Pisue","tipo":"PET","volcan":"Cordón Caulle"},"geometry":{"type":"Point","coordinates":[-72.53912,-40.62904]}},
{"type":"Feature","properties":{"id":221,"nombre":"Escuela El Arrayán","tipo":"PET","volcan":"Cordón Caulle"},"geometry":{"type":"Point","coordinates":[-72.51683,-40.60154]}},
{"type":"Feature","properties":{"id":222,"nombre":"Escuela Rural Mantilhue Bajo","tipo":"PET","volcan":"Cordón Caulle"},"geometry":{"type":"Point","coordinates":[-72.48555,-40.61681]}},
{"type":"Feature","properties":{"id":224,"nombre":"Escuela Rucatayo Alto","tipo":"PET","volcan":"Cordón Caulle"},"geometry":{"type":"Point","coordinates":[-72.40803,-40.57015]}},
{"type":"Feature","properties":{"id":225,"nombre":"Iglesia cruce Las Quemas","tipo":"PET","volcan":"Cordón Caulle"},"geometry":{"type":"Point","coordinates":[-72.15637,-40.3231]}},
{"type":"Feature","properties":{"id":226,"nombre":"Cerro Familia Santibáñez","tipo":"PET","volcan":"Cordón Caulle"},"geometry":{"type":"Point","coordinates":[-71.94982,-40.32386]}},
{"type":"Feature","properties":{"id":227,"nombre":"Sede Los Álamos","tipo":"PET","volcan":"Cordón Caulle"},"geometry":{"type":"Point","coordinates":[-72.18639,-40.31067]}},
{"type":"Feature","properties":{"id":231,"nombre":"Escuela Champulli","tipo":"PE","volcan":"Cordón Caulle"},"geometry":{"type":"Point","coordinates":[-72.69755,-40.52881]}},
{"type":"Feature","properties":{"id":184,"nombre":"Vista Tacora","tipo":"PET","volcan":"Taapacá"},"geometry":{"type":"Point","coordinates":[-69.54195,-18.09705]}},
{"type":"Feature","properties":{"id":185,"nombre":"Casa Familia Huaylla","tipo":"PET","volcan":"Taapacá"},"geometry":{"type":"Point","coordinates":[-69.46293,-18.16364]}},
{"type":"Feature","properties":{"id":186,"nombre":"Estancia Pajira Japani","tipo":"PET","volcan":"Taapacá"},"geometry":{"type":"Point","coordinates":[-69.4968,-18.18993]}},
{"type":"Feature","properties":{"id":188,"nombre":"Pampa Lluscuma","tipo":"PET","volcan":"Taapacá"},"geometry":{"type":"Point","coordinates":[-69.584,-18.19752]}},
{"type":"Feature","properties":{"id":189,"nombre":"Campamento vialidad","tipo":"PET","volcan":"Taapacá"},"geometry":{"type":"Point","coordinates":[-69.54917,-18.20688]}},
{"type":"Feature","properties":{"id":235,"nombre":"Coronel Alcérreca","tipo":"PE","volcan":"Taapacá"},"geometry":{"type":"Point","coordinates":[-69.65962,-17.99313]}},
{"type":"Feature","properties":{"id":236,"nombre":"Zapahuira","tipo":"PE","volcan":"Taapacá"},"geometry":{"type":"Point","coordinates":[-69.58871,-18.33822]}},
{"type":"Feature","properties":{"id":0,"nombre":"Los Álamos","tipo":"PET","volcan":"Descabezado"},"geometry":{"type":"Point","coordinates":[-70.81896,-35.8177]}},
{"type":"Feature","properties":{"id":0,"nombre":"Las Garzas","tipo":"PET","volcan":"Descabezado"},"geometry":{"type":"Point","coordinates":[-70.99493,-35.76262]}},
{"type":"Feature","properties":{"id":0,"nombre":"Las Parcelas, La Suiza","tipo":"PET","volcan":"Descabezado"},"geometry":{"type":"Point","coordinates":[-71.0175,-35.72234]}},
{"type":"Feature","properties":{"id":0,"nombre":"San Carlos la Campana, Armerillo","tipo":"PET","volcan":"Descabezado"},"geometry":{"type":"Point","coordinates":[-71.06185,-35.70719]}},
{"type":"Feature","properties":{"id":0,"nombre":"Fundo Tricahue, Armerillo","tipo":"PET","volcan":"Descabezado"},"geometry":{"type":"Point","coordinates":[-71.06521,-35.69853]}},
{"type":"Feature","properties":{"id":0,"nombre":"Cancha Armerillo","tipo":"PET","volcan":"Descabezado"},"geometry":{"type":"Point","coordinates":[-71.10845,-35.70323]}},
{"type":"Feature","properties":{"id":0,"nombre":"Vientos Bajos, Armerillo","tipo":"PET","volcan":"Descabezado"},"geometry":{"type":"Point","coordinates":[-71.08927,-35.7021]}},
{"type":"Feature","properties":{"id":0,"nombre":"Punte Pancho","tipo":"PE","volcan":"Descabezado"},"geometry":{"type":"Point","coordinates":[-71.10455,-35.38623]}},
{"type":"Feature","properties":{"id":0,"nombre":"Reten Molina","tipo":"PET","volcan":"Descabezado"},"geometry":{"type":"Point","coordinates":[-71.04931,-35.4184]}},
{"type":"Feature","properties":{"id":0,"nombre":"Yacal","tipo":"PE","volcan":"Descabezado"},"geometry":{"type":"Point","coordinates":[-71.1155,-35.19973]}},
{"type":"Feature","properties":{"id":0,"nombre":"Reten Potrero Grande","tipo":"PE","volcan":"Descabezado"},"geometry":{"type":"Point","coordinates":[-71.0753,-35.20365]}},
{"type":"Feature","properties":{"id":0,"nombre":"Bramadero","tipo":"PE","volcan":"Descabezado"},"geometry":{"type":"Point","coordinates":[-71.2995,-35.60302]}},
{"type":"Feature","properties":{"id":152,"nombre":"Escuela Alejo Tascón (Manzanar)","tipo":"PET","volcan":"Lonquimay"},"geometry":{"type":"Point","coordinates":[-71.69864,-38.46609]}},
{"type":"Feature","properties":{"id":151,"nombre":"Aldea Alto Centinela","tipo":"PET","volcan":"Lonquimay"},"geometry":{"type":"Point","coordinates":[-71.59653,-38.48721]}},
{"type":"Feature","properties":{"id":150,"nombre":"Termas de Malalcahuello","tipo":"PET","volcan":"Lonquimay"},"geometry":{"type":"Point","coordinates":[-71.58609,-38.49165]}},
{"type":"Feature","properties":{"id":149,"nombre":"La Helvetia","tipo":"PET","volcan":"Lonquimay"},"geometry":{"type":"Point","coordinates":[-71.62067,-38.46116]}},
{"type":"Feature","properties":{"id":148,"nombre":"Helipista CONAF","tipo":"PET","volcan":"Lonquimay"},"geometry":{"type":"Point","coordinates":[-71.56969,-38.4693]}},
{"type":"Feature","properties":{"id":146,"nombre":"Camino a Corralco","tipo":"PET","volcan":"Lonquimay"},"geometry":{"type":"Point","coordinates":[-71.54037,-38.42303]}},
{"type":"Feature","properties":{"id":0,"nombre":"Plaza Lonquimay","tipo":"PE","volcan":"Lonquimay"},"geometry":{"type":"Point","coordinates":[-71.37066,-38.45401]}}
]
}
